num,street,type,City,Zip,Page,lat,lng,Address
215,Blackbird,Lane,Lampe ,65681,1,36.58483133,-93.45741421,215 Blackbird Lane
2,Hillcrest,Drive,Kimberling City,65686,1,36.646482,-93.429645,2 Hillcrest Dr
4,Hillcrest,Drive,Kimberling City,65686,1,36.64653847,-93.42975864,4 Hillcrest Dr
88,Oak Grove,Lane,Galena,65656,1,36.72448936,-93.43601139,88 Oak Grove Ln
88,Oak Grove,Lane,Galena,65656,1,36.72448936,-93.43601139,88 Oak Grove Ln
850,Santana,Circle,Reeds Spring,65737,1,36.65086386,-93.46379894,850 Santana Cir.
51,Skyline,Drive,Kimberling City,65686,1,36.64007502,-93.43453119,51 Skyline Dr
51,Skyline,Drive,Kimberling City,65686,1,36.64007502,-93.43453119,51 Skyline Dr
118,Spinnaker,Lane,Kimberling City,65686,1,36.64184057,-93.41202559,118 Spinnaker Lane
75,The Lodges,Drive,Lampe ,65681,1,36.59351367,-93.42933736,75  The Lodges Tr
266,Green Acres,Road,Lampe ,65681,2,36.53629034,-93.50954257,266 Green Acres
266,Green Acres,Road,Lampe ,65681,2,36.53629034,-93.50954257,266 Green Acres
3760,MO 13,,Lampe ,65681,2,36.53306938,-93.42514146,3760 State Hwy 13
812,MO EE,,Blue Eye,65611,2,36.50105771,-93.38402619,812 State Hwy EE
2456,Nauvoo,Road,Lampe ,65681,2,36.53745597,-93.51132971,2456 Nauvoo Rd
869,Pack,Lane,Lampe ,65681,2,36.541127,-93.500745,869 Pack Lane
1234,Persimmon Hill,Lane,Lampe ,65681,2,36.53261742,-93.51604519,1234 Persimmon Hill
1234,Persimmon Hill,Lane,Lampe ,65681,2,36.53261742,-93.51604519,1234 Persimmon Hill
1595,Persimmon Hill,Lane,Lampe ,65681,2,36.5349597,-93.52021254,1595 Persimmon Hill
224,Shiloh,Lane,Kimberling City,65686,2,36.62741507,-93.43987467,224 Shiloa Lane
49,Allison Bend,,Lampe ,65681,3,36.53329773,-93.50994712,49 Allison Bend
49,Allison Bend,,Lampe ,65681,3,36.53329773,-93.50994712,49 Allison Bend
190,Allison Bend,,Lampe ,65681,3,36.53307519,-93.50869373,190 Allison Bend
4229,MO 86,,Lampe ,65681,3,36.51632327,-93.4904823,4229 W Hwy 86
1220,Persimmon Hill,Lane,Lampe ,65681,3,36.53246983,-93.51603935,1220 Persimmon Hill
1220,Persimmon Hill,Lane,Lampe ,65681,3,36.53246983,-93.51603935,1220 Persimmon Hill
1240,Persimmon Hill,Lane,Lampe ,65681,3,36.53268067,-93.51604769,1240 Persimmon Hill
1595,Persimmon Hill,Lane,Lampe ,65681,3,36.5349597,-93.52021254,1595 Persimmon Hill
604,Quiet Acres,Road,,65681,3,,,604 Quiet Acres
15094,Business Highway 13,,Branson West,65737,4,36.67103157,-93.40786622,15094 Bus 13 #8
31,Crestview,Street,Kimberling City,65686,4,36.63662979,-93.42113194,31 Crestview
31,Crestview,Street,Kimberling City,65686,4,36.63662979,-93.42113194,31 Crestview
147,Eagle Ridge,Lane,Branson West,65737,4,36.61898394,-93.37211705,147 Eagle Ridge 
44,Indian Cove,Drive,Lampe ,65681,4,36.56601503,-93.47618582,44 Indian Cove 
44,Indian Cove,Drive,Lampe ,65681,4,36.56601503,-93.47618582,44 Indian Cove 
322,Lake Circle,Drive,Galena,65656,4,36.713059,-93.517829,322 Lake Circle Dr
1498,Lancelot,Lane,Reeds Spring,65737,4,36.631403,-93.386061,149 Lambstow Dr
90,Little Fox,Lane,Lampe ,65681,4,36.59202151,-93.43508556,90 Little Fox Lane
491,Trellis,Drive,Lampe ,65681,4,36.53674495,-93.48468925,491 Trellis Dr
1233,Broken Arrow,Road,Lampe ,65681,5,36.55963416,-93.46289603,1233 BrokenArrow Rd
8,Chevy,Lane,Lampe ,65681,5,36.56658454,-93.44325041,8 Chev Ln.
27,Jan,Lane,Lampe ,65681,5,36.57129575,-93.44712043,27 Kingsgate
94,Rejoice,Lane,Blue Eye,65611,5,36.5160607,-93.38136155,94 Rejoice Lane
931,Silverbluff,Circle,Reeds Spring,65737,5,36.68811233,-93.31366187,931 Silver Bluff Cr.
252,Spring,Road,Blue Eye,65611,5,36.57567006,-93.49892446,252 Spring Rd
9426,State Highway 86,,Blue Eye,65611,5,,,9426 E Hwy 86
9426,State Highway 86,,Blue Eye,65611,5,36.5364111,-93.38195142,9426 E Hwy 86
367,Waterview,Lane,Lampe ,65681,5,36.60263127,-93.49706231,367 Waterview Ln
789,Backwood,,Lampe ,65681,6,,,789 Blackwood 
768,Cron,Road,Lampe ,65681,6,36.5431586,-93.45475531,768 Cron Rd
242,Jones Trading Post,Road,,65681,6,,,242 Jones Trading post Rd
188,L Garrison,Drive,Lampe ,65681,6,36.56827665,-93.43324058,188 L. Garrison Dr
188,L Garrison,Drive,Lampe ,65681,6,36.56827665,-93.43324058,188 L. Garrison Dr
133,Pearl,Lane,Lampe ,65681,6,36.56271512,-93.44168282,133 Pearl Ln
1220,Persimmon Hill,Lane,Lampe ,65681,6,36.53246983,-93.51603935,1220 Persimmon Hill
1220,Persimmon Hill,Lane,Lampe ,65681,6,36.53246983,-93.51603935,1220 Persimmon Hill
1986,Persimmon Hill,Lane,Lampe ,65681,6,36.53103713,-93.52257188,1986 Persimmson Hill Ln
5,Quiet Acres,Road,,65681,6,,,5 Quiet Acres Rd
1454,Alyeska Point,Road,Lampe ,65681,7,36.58367285,-93.5022045,1454 Alyeska Pl
97,Chinook,Lane,Kimberling City,65686,7,36.60258522,-93.46248921,97 ChinooK Ln
4,Pine,Lane,Kimberling City,65686,7,36.63621391,-93.43447362,4 Pine Ln
4,Pine,Lane,Kimberling City,65686,7,36.63621391,-93.43447362,4 Pine Ln
7,Pine,Lane,Kimberling City,65686,7,36.63604445,-93.43438157,7 Pine Ln 
7,Pine,Lane,Kimberling City,65686,7,36.63604445,-93.43438157,7 Pine Ln 
1042,Pokeberry,Lane,Lampe ,65681,7,36.59089558,-93.41360787,1042 Pokeberry Ln
137,Ridgeview,Road,Branson West,65737,7,36.64417385,-93.38671692,137 Ridgeview Rd
399,Silverbridge,Lane,Kimberling City,65686,7,36.6146509,-93.41297865,399 Silver bridge Ln
10,Skyline,Drive,Kimberling City,65686,7,36.637244,-93.435005,10 Skyline Dr
345,Briar Cliff,Road,Lampe ,65681,8,36.57160914,-93.47751822,345 Briar Cliff Rd
19,Dapple,Lane,Blue Eye,65611,8,36.53434785,-93.32967529,19 DappleLn
345,Labradore,Lane,,65681,8,,,345 Labrador Ln
345,Labradore,Lane,,65681,8,,,345 Labrador Ln
355,Mayflower,Drive,Lampe ,65681,8,36.6026193,-93.49420517,355 Mayflower Dr
355,Mayflower,Drive,Lampe ,65681,8,36.6026193,-93.49420517,355 Mayflower Dr
1661,MO H,,Lampe ,65681,8,36.5732983,-93.45964121,1661 State Hwy H
491,Trellis,Drive,Lampe ,65681,8,36.53674495,-93.48468925,491 Trellis Dr
724,Will,Road,Lampe ,65681,8,36.54037129,-93.43913056,724 Will Rd
724,Will,Road,Lampe ,65681,8,36.54037129,-93.43913056,724 Will Rd
418,Briar Cliff,Road,Lampe ,65681,9,36.57141376,-93.47735092,418 Briar Cliff Rd
172,Indian Cove,Drive,Lampe ,65681,9,36.56656774,-93.47799578,172 Indian Cove Rd
211,Indian Cove,Drive,Lampe ,65681,9,36.567687,-93.478501,211 Indian Cove 
211,Indian Cove,Drive,Lampe ,65681,9,36.567687,-93.478501,211 Indian Cove 
56,Lois,Lane,Lampe ,65681,9,36.56666409,-93.47594705,56 Lois Lane
56,Lois,Lane,Lampe ,65681,9,36.56666409,-93.47594705,56 Lois Lane
59,Lois,Lane,Lampe ,65681,9,36.56683309,-93.47593344,59 Lois Ln
,PO Box,Lane,Kimberling City,65686,9,36.6303926,-93.4231488,P. O. Box 253
74,W View,Drive,Lampe ,65681,9,36.56770332,-93.47626425,74 West View Dr
74,W View,Drive,Lampe ,65681,9,36.56770332,-93.47626425,74 West View Dr
418,Briar Cliff,Road,Lampe ,65681,10,36.57141376,-93.47735092,418 Briar Cliff Rd
691,Briar Cliff,Road,Lampe ,65681,10,36.56894813,-93.47526353,691 Briar Cliff Rd
774,Briar Cliff,Road,Lampe ,65681,10,36.566987,-93.475307,774 Briar Cliff Rd
302,Briarwood,Drive,Lampe ,65681,10,36.568529,-93.47805,302 Briarwood Dr
302,Briarwood,Drive,Lampe ,65681,10,36.568529,-93.47805,302 Briarwood Dr
97,Indian Cove,Drive,Lampe ,65681,10,36.56649446,-93.47724052,97 Indian Cove Ln
97,Indian Cove,Drive,Lampe ,65681,10,36.56649446,-93.47724052,97 Indian Cove Ln
190,Indian Cove,Drive,Lampe ,65681,10,36.56664552,-93.47812973,190 Indian Cove
190,Indian Cove,Drive,Lampe ,65681,10,36.56664552,-93.47812973,190 Indian Cove
,PO Box,Lane,Kimberling City,65686,10,36.6303926,-93.4231488,P O Box 495
940,Alyeska Point,Road,Lampe ,65681,11,36.58048741,-93.49492364,940 Alyeska Pt 
940,Alyeska Point,Road,Lampe ,65681,11,36.58048741,-93.49492364,940 Alyeska Pt 
60,Jan,Lane,,65681,11,,,126 Owen Trail
231,Jan,Lane,Lampe ,65681,11,36.57346979,-93.44468993,231 Kingsgate 
231,Jan,Lane,Lampe ,65681,11,36.57346979,-93.44468993,231 Kingsgate 
1116,Jan,Lane,Lampe ,65681,11,36.583318,-93.444205,1116 Kingsgate 
1116,Jan,Lane,Lampe ,65681,11,36.583318,-93.444205,1116 Kingsgate 
1500,Jan,Lane,Lampe ,65681,11,36.582316,-93.442447,1500 Kingsgate
1500,Jan,Lane,Lampe ,65681,11,36.582316,-93.442447,1500 Kingsgate
247,Rollin Acres,Road,Reeds Spring,65737,11,36.66885157,-93.39745998,247 Rollin Acres
273,Jan,Lane,Lampe ,65681,12,36.57365037,-93.44431996,273 Kingsgate 
481,Jan,Lane,Lampe ,65681,12,36.57816539,-93.44025813,481 Kingsgate
481,Jan,Lane,Lampe ,65681,12,36.57816539,-93.44025813,481 Kingsgate
742,Jan,Lane,Lampe ,65681,12,36.57730328,-93.44033569,742 Kingsgate
742,Jan,Lane,Lampe ,65681,12,36.57730328,-93.44033569,742 Kingsgate
1245,Jan,Lane,Lampe ,65681,12,36.583318,-93.444205,1245 Kingsgate
1245,Jan,Lane,Lampe ,65681,12,36.583318,-93.444205,1245 Kingsgate
458,Navajo,Trail,Kimberling City,65686,12,36.6205272,-93.43450681,458 Navajo Trail
458,Navajo,Trail,Kimberling City,65686,12,36.6205272,-93.43450681,458 Navajo Trail
410,76-60 b,,Branson,65616,13,36.6555122,-93.3420415,410 John the Diver Trl
220,Cabana,Court,,65737,13,,,220 Canana Dr
90,Irish Hills,Boulevard,Kimberling City,65686,13,36.65111213,-93.44759173,90 Irish Hill Blvd
22485,Main,Street,,65737,13,,,22485 Main
111,MO H,,Lampe ,65681,13,36.5643982,-93.43930246,111 State Hwy H
111,MO H,,Lampe ,65681,13,36.5643982,-93.43930246,111 State Hwy H
320,Raspberry,Road,Reeds Spring,65737,13,36.77869051,-93.36533197,320 Raspberry
820,Tablerock,Circle,Branson,65616,13,36.62211514,-93.34296473,820 Tablerock Cir
105,turtledove,Lane,,65681,13,,,105 Turtle Dove Ln
152,Point Sixteen,Lane,Lampe ,65681,14,36.5970442,-93.50413471,152 Point 16 Lane
41,Southwood,Circle,Lampe ,65681,14,36.597575,-93.4982,41 Southwood Cir
41,Southwood,Circle,Lampe ,65681,14,36.597575,-93.4982,41 Southwood Cir
141,Southwood,Circle,Lampe ,65681,14,36.59899096,-93.49841044,141 Southwood Cir
263,Southwood,Circle,Lampe ,65681,14,36.59803857,-93.49734603,263 Southwood Cir
298,Southwood,Circle,Lampe ,65681,14,36.5985105,-93.49722235,298 Southwood Cir
142,turtledove,Lane,,65681,14,,,142 Turtle Dove Ln
142,turtledove,Lane,,65681,14,,,142 Turtle Dove Ln
157,turtledove,Lane,,65681,14,,,157 Turtle Dove Ln
157,turtledove,Lane,,65681,14,,,157 Turtle Dove Ln
455,Backwood,,Lampe ,65681,15,36.573554,-93.470758,455 Backwood 
13,Lakeshore,Drive,Kimberling City,65686,15,36.644864,-93.421919,13 A Lakeshore Dr
317,MO H,,Lampe ,65681,15,36.565784,-93.443375,317 State Hwy H
649,Norwood,Road,Lampe ,65681,15,36.59717185,-93.49975785,649 Norwood Rd
1055,Norwood,Road,Lampe ,65681,15,36.59466896,-93.50277894,1055 Norwood Rd
1055,Norwood,Road,Lampe ,65681,15,36.59466896,-93.50277894,1055 Norwood Rd
,PO Box,Lane,Kimberling City,65686,15,36.63044,-93.42259,P. O. Box 841
240,Point Sixteen,Lane,Lampe ,65681,15,36.59760562,-93.5053137,240 Point Sixteen
244,Point Sixteen,Lane,Lampe ,65681,15,36.59763781,-93.50529274,244 Point Sixteen
378,Shiloh,Lane,Kimberling City,65686,15,36.62751546,-93.44269867,378 Shiloh Ln
345,Briar Cliff,Road,Lampe ,65681,16,36.57160914,-93.47751822,345 Briar Cliff Rd
1027,MO H,,Lampe ,65681,16,36.57173317,-93.45117389,1027 State Hwy H
1027,MO H,,Lampe ,65681,16,36.57173317,-93.45117389,1027 State Hwy H
2456,Nauvoo,Road,Lampe ,65681,16,36.53745597,-93.51132971,2456 Nauvoo Rd
1228,Persimmon Hill,Lane,Lampe ,65681,16,36.53255417,-93.51604268,1228 Persimmon Ln
1228,Persimmon Hill,Lane,Lampe ,65681,16,36.53255417,-93.51604268,1228 Persimmon Ln
238,Pokeberry,Lane,Lampe ,65681,16,36.58595732,-93.42287464,238 Pokeberry
238,Pokeberry,Lane,Lampe ,65681,16,36.58595732,-93.42287464,238 Pokeberry
1829,Pokeberry,Lane,Lampe ,65681,16,36.60107352,-93.41179621,1829 Pokeberry Ln
400,Will,Road,Lampe ,65681,16,36.540638,-93.434434,160 Old Horseshoe Ridge 
179,Cactus,Lane,Branson West,65737,17,36.66937187,-93.40232219,179 Cactus Lane
1200,Everest,Road,Galena,65656,17,36.684484,-93.484053,1200 Everest Rd
284,Martin Hollow,Road,Galena,65656,17,36.7679297,-93.47991814,284 Martin Hollow Rd
3639,MO 248,,Galena,65656,17,36.81940254,-93.52029018,3639 W State Hwy 
34134,MO 413,,Galena,65656,17,36.83387488,-93.52161108,34134 State Hwy 413
34134,MO 413,,Galena,65656,17,36.83387488,-93.52161108,34134 State Hwy 413
12730,MO 76,,Cape Fair,65624,17,36.73237976,-93.57193409,12730 W. State Hwy 76
307,Olive,Street,Crane,65633,17,36.90455127,-93.56879806,307 Olive St
134,State Highway KK,,Galena,65656,17,36.82397271,-93.38491916,134 St Hwy KK
704,Tablerock,Circle,Branson,65616,17,36.6211662,-93.34447189,704 Tablerock Cir
550,August,Drive,Crane,65633,18,36.859817,-93.571473,550 Kid Run Rd
501,Jan,Lane,Lampe ,65681,18,36.57847403,-93.44033689,501 Kingsgate 
41269,MO 413,,Galena,65656,18,36.8088763,-93.4631292,41269HWY 413
220,MO AA,,Galena,65656,18,36.82327038,-93.4955863,220 State Hwy AA
401,North Hemphill,Avenue,Crane,65633,18,36.907588,-93.573769,401 N Hemphill 
79,Ollie Farm,Lane,Lampe ,65681,18,36.58145725,-93.50076178,79 Oljie Farm Ln
3636,Railey Creek,Road,Galena,65656,18,36.789077,-93.405993,3636 Railey Creek Rd
1331,Wheeler Branch,Road,Crane,65633,18,36.86155078,-93.51885213,1331 Wheeler Branch
30,Whitetail,Road,Lampe ,65681,18,36.51838959,-93.49151894,30 Whitetail Rd
540,Yocum Pond,Road,Galena,65656,18,36.74411764,-93.39907787,540 Yocum Pd Rd
1338,Blackberry,Lane,Crane,65633,19,36.90745615,-93.55299263,1338 Blackberry Ln
368,Blunk,Road,Galena,65656,19,36.80062134,-93.48069841,368 Blunk Rd
1361,Boston Mountain,Road,Crane,65633,19,36.90102817,-93.51055388,1361 Boston Mtn Rd
1284,Burr Oak,Drive,Crane,65633,19,36.8677088,-93.562924,1284 Burr Oak Dr
56,Meltons Peninsula,Road,Cape Fair,65624,19,36.72517376,-93.52298955,56 Meltons Pen 
708,MO BB,,Crane,65633,19,36.90368493,-93.56390145,708 State Hwy BB
103,North Hemphill,Avenue,Crane,65633,19,36.90505876,-93.57548827,103 N Hemphill
805,Ozark,Road,Crane,65633,19,36.92531266,-93.5241665,805 Ozark Rd
721,Paris,Street,Clever,65631,19,36.98602827,-93.44281805,721 Paris St
3344,Railey Creek,Road,Galena,65656,19,36.79441304,-93.41188337,3344 Railey Creek Rd
274,Micahs,Crossing,Reeds Spring,65737,20,36.731643,-93.387875,274 Micahs Crossing
274,Micahs,Crossing,Reeds Spring,65737,20,36.731643,-93.387875,274 Micahs Crossing
300,Micahs,Crossing,Reeds Spring,65737,20,36.73164913,-93.38810268,300 Micahs Crossing
300,Micahs,Crossing,Reeds Spring,65737,20,36.73164913,-93.38810268,300 Micahs Crossing
300,Micahs,Crossing,Reeds Spring,65737,20,36.73164913,-93.38810268,300 Micahs Crossing
349,Micahs,Crossing,Reeds Spring,65737,20,36.73133868,-93.38864161,349 Micahs Crossing
349,Micahs,Crossing,Reeds Spring,65737,20,36.73133868,-93.38864161,349 Micahs Crossing
363,Micahs,Crossing,Reeds Spring,65737,20,36.73118213,-93.38864141,363 Micahs Crossing
363,Micahs,Crossing,Reeds Spring,65737,20,36.73118213,-93.38864141,363 Micahs Crossing
374,Micahs,Crossing,Reeds Spring,65737,20,36.73127837,-93.38840813,374 Micahs Crossing
57,Eagle,Drive,Reeds Spring,65737,21,36.66211314,-93.45321465,57 Eagle Dr
109,Fritts,Way,Reeds Spring,65737,21,36.7120831,-93.37675695,109 Fritts Way
331,Hunters,Drive,Reeds Spring,65737,21,36.75475763,-93.43248466,331 Hunters Dr
174,Lakeview,Lane,Galena,65656,21,36.78515833,-93.5025433,174 Lakeview  Ln
183,Leighs,Way,Reeds Spring,65737,21,36.731848,-93.387814,183 Leigns Way
287,Micahs,Crossing,Reeds Spring,65737,21,36.73182573,-93.38833703,287 Micahs Crossing
287,Micahs,Crossing,Reeds Spring,65737,21,36.73182573,-93.38833703,287 Micahs Crossing
19660,MO 413,,Reeds Spring,65737,21,36.71395749,-93.37425867,19660 State Hwy 413
30,Tightwad Estates,Lane,,65686,21,,,97 Ramonaln
60,Chad,Road,Galena,65656,22,36.65313704,-93.51348517,60 Chad Rd
32,Hillcrest,Drive,Kimberling City,65686,22,36.64566941,-93.43113596,32 Hill Crest Dr
333,Micahs,Crossing,Reeds Spring,65737,22,36.73151759,-93.38864184,333 Micahs Crossing
382,Micahs,Crossing,Reeds Spring,65737,22,36.73120829,-93.38840858,382 Micahs Crossing
382,Micahs,Crossing,Reeds Spring,65737,22,36.73120829,-93.38840858,382 Micahs Crossing
253,Plateau,Lane,Kimberling City,65686,22,36.62881676,-93.45366825,253 Plateau
6,Chevy,Lane,Lampe ,65681,23,36.56654003,-93.44325161,6 Chev Ln
27,Jan,Lane,Lampe ,65681,23,36.57129575,-93.44712043,27 Kingsgate Rd
64,L Garrison,Drive,Lampe ,65681,23,36.56804238,-93.4329189,64 L. Garrison
2745,MO 13,,Lampe ,65681,23,36.51970522,-93.41953625,2745 State Hey 13
5769,MO 13,,Lampe ,65681,23,36.55310409,-93.43680094,5769 State Hwy 13 
5769,MO 13,,Lampe ,65681,23,36.55310409,-93.43680094,5769 State Hwy 13 
428,Persimmon Hill,Lane,Lampe ,65681,23,36.53182101,-93.50231271,428 Persimmon Hill 
604,Quiet Acres,Road,,65681,23,,,604 Quiet Acres
200,Timeline,Road,Lampe ,65681,23,36.56775,-93.483194,200 Timeline Rd
324,Wild Praire,Lane,Lampe ,65681,23,36.55935158,-93.44325498,324 Wild Poouvie
959,Cron,Road,Lampe ,65681,24,36.54388833,-93.45716933,959 Cron Rd
829,Doc Miller,Road,Blue Eye,65611,24,36.502346,-93.418544,829 Doc Miller Rd
150,Grace Chapel,Road,Blue Eye,65611,24,36.51663183,-93.38383954,150 Grace Chaple
61,Lake Hills,Point,Lampe ,65681,24,36.54730609,-93.42923117,61 Lake Hill Point
1579,Lake Hills,Point,Lampe ,65681,24,36.56233751,-93.41249261,1579 Lake Hills Point 
1364,MO 13,,Blue Eye,65611,24,36.51230236,-93.39916621,1364 State Hwy 13
1429,MO 13,,Blue Eye,65611,24,36.51235486,-93.40293286,1429 State Hwy 13
1438,MO 13,,Blue Eye,65611,24,36.51251796,-93.40281553,1438 State Hwy 13
1742,MO 13,,Blue Eye,65611,24,36.51259209,-93.40782478,1742 State Hwy 13
5226,MO 86,,Blue Eye,65611,24,36.53070776,-93.32044251,5226 W State Hwy 86
155,Clearview,Drive,Blue Eye,65611,25,36.53257961,-93.37563342,155 Clearview Dr 1
35,Divine,Way,Blue Eye,65611,25,36.53602009,-93.37149926,35 Divine way 
180,Grace Chapel,Road,Blue Eye,65611,25,36.5179394,-93.3842518,180 Grace Chaple 
180,Grace Chapel,Road,Blue Eye,65611,25,36.5179394,-93.3842518,180 Grace Chaple 
180,Grace Chapel,Road,Blue Eye,65611,25,36.5179394,-93.3842518,180 Grace Chaple 
180,Grace Chapel,Road,Blue Eye,65611,25,36.5179394,-93.3842518,180 Grace Chaple 
180,Grace Chapel,Road,Blue Eye,65611,25,36.5179394,-93.3842518,180 Grace Chaple 
180,Grace Chapel,Road,Blue Eye,65611,25,36.5179394,-93.3842518,180 Grace Chaple 
180,Grace Chapel,Road,Blue Eye,65611,25,36.5179394,-93.3842518,180 Grace Chaple 
53,Spring,Road,Blue Eye,65611,25,36.57353862,-93.49586993,53 Spring Rd
49,Fellowship,Lane,Blue Eye,65611,26,36.52053885,-93.37706908,49 Fellowship 
95,Fellowship,Lane,Blue Eye,65611,26,36.52127405,-93.37727156,95 Fellowship Rd
141,Fellowship,Lane,Blue Eye,65611,26,36.5210055,-93.3774166,141 Fellowship 
180,Grace Chapel,Road,Blue Eye,65611,26,36.5179394,-93.3842518,180 Grace Chaple 
180,Grace Chapel,Road,Blue Eye,65611,26,36.5179394,-93.3842518,180 Grace Chaple 
180,Grace Chapel,Road,Blue Eye,65611,26,36.5179394,-93.3842518,180 Grace Chaple 
180,Grace Chapel,Road,Blue Eye,65611,26,36.5179394,-93.3842518,180 Grace Chaple 
180,Grace Chapel,Road,Blue Eye,65611,26,36.5179394,-93.3842518,180 Grace Chaple 
1114,MO 13,,Blue Eye,65611,26,36.51130048,-93.39550119,1114 State Hwy 13
188,Youngblood,Drive,Blue Eye,65611,26,36.5391331,-93.36058388,188 Youngblood Dr
205,Glen Oaks,Drive,Blue Eye,65611,27,36.53636676,-93.32687531,205 Glen Oaks 
104,Huskey,Drive,Blue Eye,65611,27,36.502585,-93.39825727,104 Huskey
74,Lake Hills,Point,Lampe ,65681,27,36.557869,-93.418285,74 Lake Hills Pt Lane
74,Lake Hills,Point,Lampe ,65681,27,36.557869,-93.418285,74 Lake Hills Pt Lane
10532,State Highway 86,,Blue Eye,65611,27,,,10532 E State Hwy 86
753,Schodack,Road,Lampe ,65681,28,36.572405,-93.4967131,753 Schodack Rd
146,Hodges,Lane,,65737,29,,,146 Shadow Valley Dr
146,Hodges,Lane,,65737,29,,,146 Shadow Valley Dr
1611,Lane Branch,Road,Crane,65633,29,36.9216454,-93.48030432,1611 Lane branch Rd
263,Mayden,Lane,,65616,29,36.653886,-93.2190606,263 Mayden Ln
35,North Caps Cove,Lane,Branson,65616,29,36.62402826,-93.34863941,35 N Caps Cove 
8,Pine,Lane,Kimberling City,65686,29,36.63615173,-93.43454487,8 Pine Lane
80,Spinnaker,Lane,Kimberling City,65686,29,36.64175437,-93.4127625,80 Spinnaken
934,Tablerock,Circle,Branson,65616,29,36.62323614,-93.3416189,934 Tablerock Cir
496,Tunnel,Drive,Reeds Spring,65737,29,36.71765274,-93.36723831,496 Tunnel Dr
24,Village,Trail,Branson ,65616,29,36.63524342,-93.34286332,24 Village Trail #1709
49,Fellowship,Lane,Blue Eye,65611,30,36.52053885,-93.37706908,49 Zion Rd
180,Grace Chapel,Road,Blue Eye,65611,30,36.5179394,-93.3842518,180 Grace Chaple 
180,Grace Chapel,Road,Blue Eye,65611,30,36.5179394,-93.3842518,180 Grace Chaple 
180,Grace Chapel,Road,Blue Eye,65611,30,36.5179394,-93.3842518,180 Grace Chaple 
180,Grace Chapel,Road,Blue Eye,65611,30,36.5179394,-93.3842518,180 Grace Chaple 
180,Grace Chapel,Road,Blue Eye,65611,30,36.5179394,-93.3842518,180 Grace Chaple 
1091,Peace in the Valley,Road,Blue Eye,65611,30,36.5237559,-93.3776603,1091 Peace In Valley Rd
1091,Peace in the Valley,Road,Blue Eye,65611,30,36.5237559,-93.3776603,1091 Peace In Valley Rd
307,Prayer Garden,Lane,Lampe ,65681,30,36.54592766,-93.4749697,307 Prayer Garden 
186,Rejoice,Lane,Blue Eye,65611,30,36.51601528,-93.38207583,186 Rejoice 
393,Alyeska Point,Road,Lampe ,65681,31,36.58072931,-93.48657978,393 Alyeska 
1191,Broken Arrow,Road,Lampe ,65681,31,36.56022855,-93.46287531,1191 Broken Arrow 
327,Fairwood,Road,Lampe ,65681,31,36.56970936,-93.48571318,327 Fairwood Rd
648,Labradore,Lane,,65681,31,,,648 Labrador
5313,MO 13,,Lampe ,65681,31,36.54759717,-93.43181566,5313 State Hwy 13
6463,MO 13,,Lampe ,65681,31,36.5626635,-93.4390588,6463 State Hwy 13
6619,MO 13,,Lampe ,65681,31,36.5645281,-93.4375294,6619 State Hwy 13
200,Timeline,Road,Lampe ,65681,31,36.56775,-93.483194,200 Timeline Rd
200,Timeline,Road,Lampe ,65681,31,36.56775,-93.483194,200 Timeline Rd
465,Uniqueville,Lane,Lampe ,65681,31,36.59275362,-93.49708207,465 Uniqueville
76,Bradford Place,,Branson,65616,32,36.63632338,-93.32751908,76 Bradford Place #6 
780,Cron,Road,Lampe ,65681,32,36.543427,-93.455032,780 Cron Rd
780,Cron,Road,Lampe ,65681,32,36.543427,-93.455032,780 Cron Rd
9,Hickory,Drive,Kimberling City,65686,32,36.64156722,-93.42891246,9 Hickory Dr
9,Hickory,Drive,Kimberling City,65686,32,36.64156722,-93.42891246,9 Hickory Dr
187,Melody Manor,Lane,Reeds Spring,65737,32,36.659223,-93.455957,187 Melody Mannor
6619,MO 13,,Lampe ,65681,32,36.5645281,-93.4375294,6619 State Hwy 13
50,MO H,,Lampe ,65681,32,36.56420111,-93.43933265,50 State Hwy H
16,Spinwheel,Lane,Blue Eye,65611,32,36.53457931,-93.31568792,16 Spinwheel Lane
1121,State Line,Road,Blue Eye,65611,32,36.49892079,-93.41584455,1121 State Line Rd
49,Fellowship,Lane,Blue Eye,65611,33,36.52053885,-93.37706908,49 Fellowship Lane
49,Fellowship,Lane,Blue Eye,65611,33,36.52053885,-93.37706908,49 Zron rd
74,Fellowship,Lane,Blue Eye,65611,33,36.5209019,-93.3776598,74 Fellowship 
180,Grace Chapel,Road,Blue Eye,65611,33,36.5179394,-93.3842518,180 Grace Chaple 
180,Grace Chapel,Road,Blue Eye,65611,33,36.5179394,-93.3842518,180 Grace Chaple 
180,Grace Chapel,Road,Blue Eye,65611,33,36.5179394,-93.3842518,180 Grace Chaple 
180,Grace Chapel,Road,Blue Eye,65611,33,36.5179394,-93.3842518,180 Grace Chaple 
884,Peace in the Valley,Road,Blue Eye,65611,33,36.5237559,-93.3776603,884 Peace in the Valley
15,Elm,Drive,Kimberling City,65686,34,36.6409672,-93.4292898,15 Elm Dr
103,Oak,Drive,Kimberling City,65686,34,36.64485746,-93.41041059,103 Oak Dr
7,Oak Shadow,Drive,Kimberling City,65686,34,36.64519971,-93.41021784,7 Oak Shadow 
8,Oak Shadow,Drive,Kimberling City,65686,34,36.64536679,-93.4101892,8 Oak Shadow 
38,Oak Shadow,Drive,Kimberling City,65686,34,36.6452213,-93.40879067,38 Oak Shadow 
,PO Box,Lane,Kimberling City,65686,34,36.63044,-93.42259,P O Box 152
349,Port,Drive,Kimberling City,65686,34,36.640926,-93.411845,349 Port Dr #7
9,Port Holiday,Drive,Kimberling City,65686,34,36.62977794,-93.42543225,9 Port Holiday 
12,Summit,Drive,Kimberling City,65686,34,36.65720985,-93.42020826,12 Summit Dr
210,Sunset,Cove,Branson,65616,34,36.63654679,-93.32896093,210 Sunset Cove  #321
1205,Eagle,Drive,,65737,35,,,1205 Eaglewood
10,Evergreen,Lane,Branson West,65737,35,36.618851,-93.376754,10 Evergreen
42,Irish Hills,Boulevard,Kimberling City,65686,35,36.65212566,-93.44103192,42 IRISH Hills 
42,Irish Hills,Boulevard,Kimberling City,65686,35,36.65212566,-93.44103192,42 IRISH Hills 
1895,Mule Barn,Drive,Cape Fair,65624,35,36.724898,-93.488171,1895 Mule Barn Dr
1895,Mule Barn,Drive,Cape Fair,65624,35,36.724898,-93.488171,1895 Mule Barn Dr
109,starrville,Lane,Branson West,65737,35,36.663758,-93.419864,109 Tony Court
545,Stone,Road,Kimberling City,65686,35,36.62383624,-93.44786711,545 Stone Rd
545,Stone,Road,Kimberling City,65686,35,36.62383624,-93.44786711,545 Stone Rd
319,Whitefish,bay,,65686,35,,,319 White Fish Ln
377,Waterview,Lane,Lampe ,65681,36,36.60254939,-93.49720115,377 Waterview Ln
417,Waldon Ridge,,Lampe ,65681,37,36.52837062,-93.47974598,417 Waldon Ridge
417,Waldon Ridge,,Lampe ,65681,37,36.52837062,-93.47974598,417 Waldon Ridge
471,Waldon Ridge,,Lampe ,65681,37,36.527909,-93.48047,471 Waldon Ridge
489,Waldon Ridge,,Lampe ,65681,37,36.52781328,-93.48059615,489 Waldon Ridge
489,Waldon Ridge,,Lampe ,65681,37,36.52781328,-93.48059615,489 Waldon Ridge
504,Waldon Ridge,,Lampe ,65681,37,36.52775148,-93.48037847,504 Waldon Ridge 
504,Waldon Ridge,,Lampe ,65681,37,36.52775148,-93.48037847,504 Waldon Ridge 
538,Waldon Ridge,,Lampe ,65681,37,36.5274241,-93.48079892,538 Waldon Ridge 
538,Waldon Ridge,,Lampe ,65681,37,36.5274241,-93.48079892,538 Waldon Ridge 
694,Waldon Ridge,,Lampe ,65681,37,36.52646216,-93.48317344,694 Waldon Ridge 
15,Catamount,Boulevard,Branson West,65737,38,,,15 Catmount
108,Grace Chapel,Road,Blue Eye,65611,38,36.51740721,-93.38338784,108 Grace Chaple
180,Grace Chapel,Road,Blue Eye,65611,38,36.5179394,-93.3842518,180 Grace Chaple 
459,Heather,Row,Reeds Spring,65737,38,36.64694101,-93.36961282,459 Heather Rd
205,Mayflower,Drive,Lampe ,65681,38,36.59890929,-93.49373677,205 Mayflower Dr
205,Mayflower,Drive,Lampe ,65681,38,36.59890929,-93.49373677,205 Mayflower Dr
1004,Peace in the Valley,Road,Blue Eye,65611,38,36.5237559,-93.3776603,1004 Peace In the Valley
270,Wildflower,Road,Kimberling City,65686,38,36.6464126,-93.46580901,270 Wildflower
270,Wildflower,Road,Kimberling City,65686,38,36.6464126,-93.46580901,270 Wildflower
51,Bayview,Trail,Lampe ,65681,39,36.5880669,-93.4360228,51 Bayview 
373,Forest,Lane,Kimberling City,65686,39,36.617408,-93.44110619,373 Forrest Ln
3,Hillcrest,Drive,Kimberling City,65686,39,36.64668108,-93.4296571,3 Hillcrest Dr
60,Jan,Lane,,65681,39,,,126 Owen Trail
43,Marina,Way,Kimberling City,65686,39,36.63642918,-93.41690375,43 Marina Way
228,Pinnacle Shores,Drive,Lampe ,65681,39,36.5902997,-93.4329882,228 Pinnacle Shores
249,Port,Drive,Kimberling City,65686,39,36.62812076,-93.42601681,249 Port #4 
249,Port,Drive,Kimberling City,65686,39,36.62812076,-93.42601681,249 Port #4 
300,Port,Drive,Kimberling City,65686,39,36.641171,-93.411939,300 Port # 2
10,Baywood,Circle,Branson West,65737,40,36.60694122,-93.3734503,10 Baywood Cir
2,Northwoods,Drive,Kimberling City,65686,40,36.658141,-93.425932,2B Northwood Dr
249,Port,Drive,Kimberling City,65686,40,36.62812076,-93.42601681,249 Port #6
249,Port,Drive,Kimberling City,65686,40,36.62812076,-93.42601681,249 Port Dr
249,Port,Drive,Kimberling City,65686,40,36.62812076,-93.42601681,249 Port Dr
112,Spinnaker,Lane,Kimberling City,65686,40,36.64183671,-93.41206606,112 Spinmaker
1938,State Highway Y,,Galena,65656,40,36.71805069,-93.44601534,1938 Hwy Y 
1069,Tablerock,Circle,Branson ,65616,40,36.62474609,-93.34082237,1069 Tablerock Cir
751,76-60 b,,Branson,65616,41,36.65464224,-93.34263288,751 Jon the Driver 
148,Crown,Drive,Branson West,65737,41,36.67210747,-93.36536605,148 Crown Dr
1652,Indian Point,Road,Branson,65616,41,36.65022222,-93.34150079,1652 Indian Pt Rd
639,Jakes Creek,Trail,Branson,65616,41,36.64876932,-93.33532655,639 Jakes Creek Reail
425,Longbend,Road,Galena,65656,41,36.70017755,-93.50547015,425 Long Bend Rd
195,Mayden,Lane,,65616,41,36.653886,-93.2190606,195 Mayden Lane
596,Old Mill,Road,Lampe ,65681,41,36.584063,-93.456214,596 Old Mill Rd
258,Sundance,Road,Cape Fair,65624,41,36.71638311,-93.50783213,258 Sundance Rd
864,Tablerock,Circle,Branson,65616,41,36.62253305,-93.34243329,864 Table Rock Cir
400,Will,Road,Lampe ,65681,41,36.540638,-93.434434,160 Old Horseshoe Ridge 
,Armadillo,Lane,Reeds Spring,65737,42,36.672399,-93.408496,Armadillo Lne
29,Big John,Road,,65737,42,,,29 Big John Ln
84,Goldwater,lane,Reeds Spring,65737,42,36.67399537,-93.45692065,84 Goldwater Ln
121,Howard,Circle,Cape Fair,65624,42,36.72378,-93.486221,121 Howard Dr
801,Jackson Hollow,Road,Galena,65656,42,36.6749343,-93.48146284,801 Jackson Hollow 
99,Lost Land,Lane,Galena,65656,42,36.74805427,-93.39898109,99 LostLand Ln
8116,MO V,,Galena,65656,42,36.85572865,-93.40359452,8116 State Hwy V
7,Port Holiday,Drive,Kimberling City,65686,42,36.62978346,-93.42541794,7 Port  Holiday Dr
7,Port Holiday,Drive,Kimberling City,65686,42,36.62978346,-93.42541794,7 Port  Holiday Dr
285,Welch,Road,Reeds Spring,65737,42,36.66763023,-93.44353331,285 Welch 
10,Backwood,,Branson West,65737,43,36.57780519,-93.46885752,10 Batwood Cir
137,Rainbow Hill,Lane,Reeds Spring,65737,43,36.73626443,-93.38579039,137 Raunbow Hill
90,September Falls,Drive,Branson West,65737,43,36.60845967,-93.37762444,90 September Falls
285,September Falls,Drive,Branson West,65737,43,36.607967,-93.373833,285 September Falls 
285,September Falls,Drive,Branson West,65737,43,36.607967,-93.373833,285 September Falls 
292,September Falls,Drive,Branson West,65737,43,36.60735441,-93.37362172,292 September Falls 
488,September Falls,Drive,Branson West,65737,43,36.60589712,-93.37144204,488 September Falls
488,September Falls,Drive,Branson West,65737,43,36.60589712,-93.37144204,488 September Falls
53,Village,Point,Kimberling City,65686,43,36.61471347,-93.45277144,53 Village Point
27,Woodland,Avenue,Kimberling City,65686,43,36.6373913,-93.42146707,27 Woodland Ave 
90,September Falls,Drive,Reeds Spring,65737,44,36.60845967,-93.37762444,90 September Falls
215,September Falls,Drive,Branson West,65737,44,36.60853116,-93.3748001,215 September Falls
215,September Falls,Drive,Branson West,65737,44,36.60853116,-93.3748001,215 September Falls
369,September Falls,Drive,Reeds Spring,65737,44,36.60667986,-93.3727324,369 September Falls 
444,September Falls,Drive,Reeds Spring,65737,44,36.60594615,-93.37159051,444 September Falls
444,September Falls,Drive,Reeds Spring,65737,44,36.60594615,-93.37159051,444 September Falls
485,September Falls,Drive,Reeds Spring,65737,44,36.60607906,-93.3713795,485 September Falls
485,September Falls,Drive,Reeds Spring,65737,44,36.60607906,-93.3713795,485 September Falls
485,September Falls,Drive,Reeds Spring,65737,44,36.60607906,-93.3713795,485 September Falls
485,September Falls,Drive,Reeds Spring,65737,44,36.60607906,-93.3713795,485 September Falls
120,bluesky,Trails,,65737,45,,,120 Blue Sky Trails 
64,Ridgemont,Circle,Branson West,65737,45,36.607461,-93.371119,64 Ridgemount Cir
64,Ridgemont,Circle,Branson West,65737,45,36.607461,-93.371119,64 Ridgemount Cir
23,September Falls,Drive,Reeds Spring,65737,45,36.60865597,-93.37765533,23 September Falls
23,September Falls,Drive,Reeds Spring,65737,45,36.60865597,-93.37765533,23 September Falls
51,September Falls,Drive,Reeds Spring,65737,45,36.60856126,-93.37736577,51 September Falls 
102,September Falls,Drive,Reeds Spring,65737,45,36.60843195,-93.37753825,102 September Falls
102,September Falls,Drive,Reeds Spring,65737,45,36.60843195,-93.37753825,102 September Falls
253,September Falls,Drive,Branson West,65737,45,36.60837177,-93.37433986,253 September Falls 
253,September Falls,Drive,Branson West,65737,45,36.60837177,-93.37433986,253 September Falls 
10,Baywood,Circle,Branson West,65737,46,36.60694122,-93.3734503,10Baywood Cir
35,Catamaran,Drive,Kimberling City,65686,46,36.64428329,-93.41354192,35 Catamaran Dr
27,Fade,Lane,Branson West,65737,46,36.68319594,-93.31520852,27 Fade Lane
39,HILLtop,Drive,Kimberling City,65686,46,36.643585,-93.424896,39 HILL Top Dr
128,Meadow Hills,Lane,Branson,65616,46,36.65515052,-93.33423288,128 Meadows Hill
300,Port,Drive,Kimberling City,65686,46,36.641171,-93.411939,300 Port Dr Unit 2
53,Victory,Lane,Reeds Spring,65737,46,36.66127197,-93.42020308,53 Victory Lane
531,Dogwood Village,Lane,Lampe ,65681,47,36.57848787,-93.45625681,531 Dogwood Village
1017,Dogwood Village,Lane,Lampe ,65681,47,36.58213291,-93.45125348,1017 Dogwood Village
1017,Dogwood Village,Lane,Lampe ,65681,47,36.58213291,-93.45125348,1017 Dogwood Village
1024,Dogwood Village,Lane,Lampe ,65681,47,36.58150255,-93.45177071,1024 Dogwood Village
1041,Dogwood Village,Lane,Lampe ,65681,47,36.58234779,-93.45096507,1041 Dogwood Village
1041,Dogwood Village,Lane,Lampe ,65681,47,36.58234779,-93.45096507,1041 Dogwood Village
1498,Lancelot,Lane,Branson West,65737,47,36.631403,-93.386061,1498 Lancelot Lane
203,Port Holiday,Drive,Kimberling City,65686,47,36.62846835,-93.42595649,203 Port Holiday 8-F
12,Roxborough,Avenue,Branson West,65737,47,36.64363285,-93.36375788,12 F Roxborough Ave
753,Santana,Circle,Reeds Spring,65737,47,36.65101693,-93.46524448,753 Santana Cir
1093,Dogwood Village,Lane,Lampe ,65681,48,36.58229247,-93.45038576,1093 Dogwood Village
1093,Dogwood Village,Lane,Lampe ,65681,48,36.58229247,-93.45038576,1093 Dogwood Village
1275,Dogwood Village,Lane,Lampe ,65681,48,36.57886316,-93.45112169,1275 Dogwood Village
1275,Dogwood Village,Lane,Lampe ,65681,48,36.57886316,-93.45112169,1275 Dogwood Village
1317,Dogwood Village,Lane,Lampe ,65681,48,36.57848186,-93.45120669,1317Dogwood Village 
1508,Dogwood Village,Lane,Lampe ,65681,48,36.57647959,-93.45176179,1508 Dogwood Village 
1508,Dogwood Village,Lane,Lampe ,65681,48,36.57647959,-93.45176179,1508 Dogwood Village 
112,Linden,Drive,Reeds Spring,65737,48,36.59231474,-93.395211,112 Linden Dr
761,Mill Creek Shores,Lane,Lampe ,65681,48,36.58096825,-93.4590821,761 Mill Creek Shores Ln
97,Whitedove,Lane,Lampe ,65681,48,36.5787877,-93.44717238,97 Whitedove Ln
105,Alyeska Point,Road,Lampe ,65681,49,,,105 Aleaska Crossing
227,Catamount,Boulevard,Branson West,65737,49,36.71146791,-93.36380422,227 N Catamount Blvd
98,Drury,Lane,Blue Eye,65611,49,36.5577926,-93.32432254,98 Drury Ln
373,Forest,Lane,Kimberling City,65686,49,36.617408,-93.44110619,373 Forrest Ln
3,Hillcrest,Drive,Kimberling City,65686,49,36.64668108,-93.4296571,3 Hillcrest Dr
63,Kyle,Drive,Lampe ,65681,49,36.54025666,-93.42952284,63 Kyle Dr
962,Lake Forest,Drive,Galena,65656,49,36.68012,-93.468302,962 Lake Forest Dr
962,Lake Forest,Drive,Galena,65656,49,36.68012,-93.468302,962 Lake Forest Dr
128,Meadow Hills,Lane,Branson,65616,49,36.65515052,-93.33423288,128 Meadows Hill 
123,North Caps Cove,Lane,Branson,65616,49,36.62495799,-93.34855963,123 N. Caps Cove Ln
629,Dogwood Village,Lane,Lampe ,65681,50,36.57817246,-93.45505976,629 Dogwood Village
737,Dogwood Village,Lane,Lampe ,65681,50,36.57833877,-93.45392043,737 Dogwood Village
851,Dogwood Village,Lane,Lampe ,65681,50,36.58028031,-93.45276144,851 Dogwood Village
851,Dogwood Village,Lane,Lampe ,65681,50,36.58028031,-93.45276144,851 Dogwood Village
1693,Dogwood Village,Lane,Lampe ,65681,50,36.57341003,-93.45165747,1693 Dogwood Village
1693,Dogwood Village,Lane,Lampe ,65681,50,36.57341003,-93.45165747,1693 Dogwood Village
459,Heather,Row,Reeds Spring,65737,50,36.64694101,-93.36961282,459 Heather Rd
99,Hunters Glen,Lane,Kimberling City,65686,50,36.63407597,-93.45613034,99 Hunters Glen
4,Whitedove,Lane,Lampe ,65681,50,36.57586149,-93.45148173,4 Whitedove Ln
31,Wright,Road,Reeds Spring,65737,50,36.655227,-93.461091,31 Wright Rd
8,Blarney,Way,Kimberling City,65686,51,36.6515171,-93.44761542,8 Blarney Way
15,Dogwood Village,Lane,Kimberling City,65686,51,36.57452267,-93.46010322,15 Dogwood Lane
90,Misty Den,Drive,Reeds Spring,65737,51,36.66445519,-93.46434062,90 Misty Den Dr
90,Misty Den,Drive,Reeds Spring,65737,51,36.66445519,-93.46434062,90 Misty Den Dr
51,Northwoods,Drive,Kimberling City,65686,51,36.65733615,-93.4249206,51 Northwoods Dr
303,Port,Drive,Kimberling City,65686,51,36.64115649,-93.41193184,303 Port Dr unit 6
33,Redbud,Lane,Kimberling City,65686,51,36.63369615,-93.43628173,33 Redbud Ln
33,Redbud,Lane,Kimberling City,65686,51,36.63369615,-93.43628173,33 Redbud Ln
13,Yacht,Lane,Kimberling City,65686,51,36.64529871,-93.41191227,13 Yacht Lane
56,Carefree,Lane,Kimberling City,65686,52,36.6464955,-93.45758774,56 Carefree Ln
56,Carefree,Lane,Kimberling City,65686,52,36.6464955,-93.45758774,56 Carefree Ln
1725,Cedar Ridge,Way,Reeds Spring,65737,52,36.69175907,-93.3284651,1725 Cedar Ridge Way
95,Harborview,Drive,Branson West,65737,52,36.58612415,-93.38635236,95 Harborview Dr
146,Hodges,Lane,,65737,52,,,146 Shadow Valley Dr
146,Hodges,Lane,,65737,52,,,146 Shadow Valley Dr
160,Micahs,Crossing,Reeds Spring,65737,52,36.73219234,-93.38546359,160 Michas Crossing
273,Rock Ridge,Road,,65737,52,,,273 River Rock Road
199,Seldom Seen,Lane,Branson West,65737,52,36.6760192,-93.37060894,199 Seldom Seen Ln
303,The Lodges,Drive,Lampe ,65681,52,36.59385936,-93.43025709,303 The Lodges Dr
622,Heather,Row,Reeds Spring,65737,53,36.6443117,-93.36994116,622 Heather Row
110,Sunny,Lane,Branson West,65737,53,36.71488256,-93.36490263,110 Sunny Ln
110,Sunny,Lane,Branson West,65737,53,36.71488256,-93.36490263,110 Sunny Ln
301,Alyeska Point,Road,Lampe ,65681,54,36.580979,-93.493554,301 Alyska point rd
341,Flagstone,Road,Cape Fair,65624,54,36.740621,-93.508155,341 Flagstone Rd
17,J L Mills,Ridge,Galena,65656,54,36.7011487,-93.46257313,17 JC Mills Ridge
3126,MO 176,,,65656,54,,,3126 St Hwy 176
968,Othello,Lane,Reeds Spring,65737,54,36.62997638,-93.40003193,968 Othello Ln
968,Othello,Lane,Reeds Spring,65737,54,36.62997638,-93.40003193,968 Othello Ln
1026,Othello,Lane,Reeds Spring,65737,54,36.62977659,-93.39951009,1026 Othello Ln
1026,Othello,Lane,Reeds Spring,65737,54,36.62977659,-93.39951009,1026 Othello Ln
198,Starlight,Lane,Branson West,65737,54,36.65386436,-93.377873,198 Starlight Ln
116,Sunny,Lane,Branson West,65737,54,36.71470856,-93.36415865,116 Sunny Ln
622,Heather,Row,Reeds Spring,65737,55,36.6443117,-93.36994116,622 Heather Row
20834,Main,Street,,65737,55,,,20834 Main St
236,McCord Bend,Road,Galena,65656,55,36.80740119,-93.49722729,236 McCord Bend Rd
236,McCord Bend,Road,Branson West,65737,55,36.80740119,-93.49722729,236 McCord Bend Rd
716,MO 248,,Reeds Spring,65737,55,36.7577757,-93.37124397,716 State Hwy 248
716,MO 248,,Reeds Spring,65737,55,36.7577757,-93.37124397,716 State Hwy 248
198,Starlight,Lane,Branson West,65737,55,36.65386436,-93.377873,198 Starlight Ln
97,Wright,Road,Branson West,65737,55,36.6553193,-93.46167685,97 Wright Rd
97,Wright,Road,Branson West,65737,55,36.6553193,-93.46167685,97 Wright Rd
40,Charles,Street,,65681,56,,,40 Hewden Rd
32,Chickasaw,Lane,Lampe ,65681,56,0,0,Cannot Locate in MO
32,Chickasaw,Lane,Lampe ,65681,56,0,0,Cannot Locate in MO
151,Christie,Road,Lampe ,65681,56,0,0,Cannot Locate in MO
125,James River,Road,Kimberling City,65686,56,36.64586224,-93.42960234,125 James River Rd
43,Lodgepole,Lane,Reeds Spring,65737,56,36.73505939,-93.36992418,43 Lodge Pole Ln
79,Sailboat,Lane,Kimberling City,65686,56,36.60816023,-93.44487904,79 Sailboat Ln
315,west 10th,Street,Galena,65656,56,36.80028575,-93.46899182,315 W 10th St
8,Blarney,Way,Kimberling City,65686,57,36.6515171,-93.44761542,8 Blarney Way
8,Bridgeview,Drive,Kimberling City,65686,57,36.633976,-93.437677,8 Bridgeview Dr
181,Morgan,Trail,Reeds Spring,65737,57,36.58784771,-93.36545111,181 Morgan Trl
254,pinnacle cove,Lane,Lampe ,65681,57,36.59181324,-93.43669843,254 Pinacle Cove Ln
254,pinnacle cove,Lane,Lampe ,65681,57,36.59181324,-93.43669843,254 Pinacle Cove Ln
137,Pinnacle Shores,Drive,Lampe ,65681,57,36.58998649,-93.43327318,137 Pinnacle Shores Dr
137,Pinnacle Shores,Drive,Lampe ,65681,57,36.58998649,-93.43327318,137 Pinnacle Shores Dr
355,Silverbridge,Lane,Kimberling City,65686,57,36.61466306,-93.41300934,355 Silverbridge Ln
1247,Alyeska Point,Road,Lampe ,65681,58,36.582718,-93.500417,1247 Alyeska Point
18,Blueview,Lane,Kimberling City,65686,58,36.62056469,-93.4565205,18 Shane Ln
99,Boulder,Drive,Lampe ,65681,58,36.545165,-93.48694,99 Boulder Dr
1036,Jones Trading Post,Road,,65681,58,,,1036 Jones Trading Post
131,Lakeshore,Drive,Kimberling City,65686,58,36.63543405,-93.43294358,131 Lakeshore Dr
178,Leighs,Way,Reeds Spring,65737,58,36.73144976,-93.38764917,178 Leighs Way
459,Micahs,Crossing,Reeds Spring,65737,58,36.73083949,-93.38938271,459 Michas Crossing
4403,MO H,,Lampe ,65681,58,36.56832099,-93.49266219,4403 St Hwy H
28,Sugar Maple,Lane,Reeds Spring,65737,58,36.654775,-93.454822,28 Sugar Maple Ln
147,Victory,Lane,Branson West,65737,58,36.66150849,-93.42095437,147 Victory Ln
14,Misty Den,drive,Reeds Spring,65737,59,36.66438017,-93.46432999,14 Shore View Dr
3707,MO 13,,Lampe ,65681,59,36.53277855,-93.42589467,3707 State Hwy 13
3735,MO 86,,Lampe ,65681,59,36.52202149,-93.4859484,3735 W State Hwy 86
416,Navajo,Trail,Kimberling City,65686,59,36.620891,-93.434727,416 Navajo Trl
146,peaceful Valley,Lane,,65737,59,,,146 Beautful Valley Ln
146,peaceful Valley,Lane,,65737,59,,,146 Beautful Valley Ln
1,Sunvalley,Lane,Lampe ,65681,59,36.530153,-93.431965,Sun Valley
12,Walnut,Lane,Kimberling City,65686,59,36.63563822,-93.43033268,12 Walnut Ln
54,Zachs,court,Reeds Spring,65737,59,36.73186193,-93.38928713,54 Zachs Court
5,Bridgeview,Drive,Kimberling City,65686,60,36.633234,-93.437673,5 Bridgeview Dr
14504,Business Highway 13,,Reeds Spring,65737,60,36.6696308,-93.4094934,14504 Business 13
672,Cron,Road,Lampe ,65681,60,36.54360988,-93.45257653,672 Cron Rd
580,Falling star,Road,Lampe ,65681,60,36.58522494,-93.49559365,580 Falling St
580,Falling star,Road,Lampe ,65681,60,36.58522494,-93.49559365,580 Falling St
7,James River,Road,Kimberling City,65686,60,36.6593838,-93.41767641,7 James River Rd
76,Pinnacle Shores,Drive,Lampe ,65681,60,36.59145686,-93.43198915,76 Pinnacle Shores Dr
76,Pinnacle Shores,Drive,Lampe ,65681,60,36.59145686,-93.43198915,76 Pinnacle Shores Dr
265,Santana,Circle,Reeds Spring,65737,60,36.65264176,-93.46757189,265 Santana Circle
42,Skyline,Drive,Kimberling City,65686,60,36.63931384,-93.43446058,42 Skyline Dr
12,Bridgeview,Drive,Kimberling City,65686,61,36.634604,-93.437504,12 Bridgeview
20,Bridgeview,Drive,Kimberling City,65686,61,36.63487472,-93.43748059,20 Bridgeview
123,Coachlight,Lane,Kimberling City,65686,61,36.60889043,-93.42273414,123 Coachlight Ln
18,Greenview,Drive,Kimberling City,65686,61,36.65268577,-93.42029945,18 Greenview Dr
18,Greenview,Drive,Kimberling City,65686,61,36.65268577,-93.42029945,18 Greenview Dr
320,Jones Trading Post,Road,,65681,61,,,320 Jones Trading Post
1,Lively Acres,Lane,Kimberling City,65686,61,36.605231,-93.439463,31 Jeremy Ln
459,Micahs,Crossing,Reeds Spring,65737,61,36.73083949,-93.38938271,459 Michas Crossing
197,Misty Den,Drive,Kimberling City,65686,61,36.66408563,-93.46432203,197 Misty Den
7918,MO 86,,Shell Knob,65737,61,36.5410692,-93.35977168,7918 W Hwy 86
51,Bayview,Trail,Lampe ,65681,62,36.5880669,-93.4360228,51 Bayview Trl
122,Pinnacle Shores,Drive,Lampe ,65681,62,36.59044749,-93.43301663,122 Pinnacle Shores Dr
122,Pinnacle Shores,Drive,Lampe ,65681,62,36.59044749,-93.43301663,122 Pinnacle Shores Dr
131,Pinnacle Shores,Drive,Lampe ,65681,62,36.59011835,-93.43308506,131 Pinnacle Shores Dr
134,Pinnacle Shores,Drive,Lampe ,65681,62,36.59015521,-93.4333604,134 Pinnacle Shores Dr
134,Pinnacle Shores,Drive,Lampe ,65681,62,36.59015521,-93.4333604,134 Pinnacle Shores Dr
229,Pinnacle Shores,Drive,Lampe ,65681,62,36.5902997,-93.4329882,229 Pinnacle Shores Dr
229,Pinnacle Shores,Drive,Lampe ,65681,62,36.5902997,-93.4329882,229 Pinnacle Shores Dr
14,The Lodges,Drive,Lampe ,65681,62,36.59289473,-93.42963271,14 The Lodges Pass
14,The Lodges,Drive,Lampe ,65681,62,36.59289473,-93.42963271,14 The Lodges Pass
10,Hillcrest,Drive,Kimberling City,65686,63,36.6465853,-93.43008427,10 Hillcrest Dr
10,Hillcrest,Drive,Kimberling City,65686,63,36.6465853,-93.43008427,10 Hillcrest Dr
10,Hillcrest,Drive,Kimberling City,65686,63,36.6465853,-93.43008427,10 Hillcrest Dr
12,Hillcrest,Drive,Kimberling City,65686,63,36.64650072,-93.43017886,12 Hillcrest Dr
100,mcdowell,drive,Kimberling City,65686,63,36.63991,-93.444946,40 Ripping Water 
918,Silverbluff,Circle,Reeds Spring,65737,63,36.68818725,-93.31397874,918 Silver Bluff Circle
122,Silveroak,Way,Reeds Spring,65737,63,36.68549465,-93.31883611,122 Silver Oak Way
125,Silveroak,Way,Reeds Spring,65737,63,36.68429218,-93.32034689,125 Silver Oak Way
303,The Lodges,Drive,Lampe ,65681,63,36.59385936,-93.43025709,303 The Lodges Dr
15,Turner,Drive,Kimberling City,65686,63,36.63435172,-93.42292802,15 Turner Dr
620,Austin,Place,Branson West,65737,64,36.66930045,-93.36262489,620 Austin Pl
620,Austin,Place,Branson West,65737,64,36.66930045,-93.36262489,620 Austin Pl
5,Bethany Hill,,Reeds Spring,65737,64,36.58505644,-93.38939981,5 Safety Hollow Ln
120,Canyon Forest,Circle,,65686,64,,,120 Canyon Forest Cir
197,Falling Leaf,court,Branson West,65737,64,36.62603843,-93.37168811,197 Falling Leaf Ct
256,Hidden Spring,Drive,Reeds Spring,65737,64,36.7749619,-93.34966532,256 Hidden Springs
13,Hillcrest,Drive,Kimberling City,65686,64,36.6467039,-93.43025827,13 Hillerd sid
440,Hoot Owl,Point,Kimberling City,65686,64,36.612312,-93.4545709,440 Hoot Owl Point
24,Mountain View,Court,Reeds Spring,65737,64,36.70835217,-93.32305354,24 Mountain View Ct
455,Silver Bell,Lane,Reeds Spring,65737,64,36.61765304,-93.43997964,455 Silver Bell
54,Bankside,Lane,,65681,65,,,54 Backside ln
6,Buttonwood,Drive,Kimberling City,65686,65,36.651577,-93.433589,6 Buttonwood Dr
391,Corewood,Lane,Reeds Spring,65737,65,36.65949811,-93.46157485,391 Corewood ln
197,Falling Leaf,court,Branson West,65737,65,36.62603843,-93.37168811,197 Falling Leaf Ct
10,kristina,lane,Kimberling City,65686,65,36.65957795,-93.42476097,10 kristina ln
18,Meadowview,Road,Galena,65656,65,36.694325,-93.447669,18 Meadowview Dr
1104,Ozark Mountain Resort,Drive,Kimberling City,65686,65,36.60525891,-93.41378177,1104 Rocky shore trl
15,Skyline,Drive,Kimberling City,65686,65,36.63751757,-93.43570483,15 Skyline Dr
249,Three Pines,Circle,Reeds Spring,65737,65,36.7359062,-93.3679859,249 three pigs circle
3,West Church,Drive,Kimberling City,65686,65,36.64252241,-93.42482669,3 South St Apt b
170,Keel,Lane,Kimberling City,65686,66,36.643311,-93.41229,170 keel ln #6
594,Labradore,Lane,,65681,66,,,594 Labrador Ln
246,Starboard,Drive,Kimberling City,65686,66,36.64222575,-93.4128299,246 Starboard Dr
,Unreadable,,,65686,66,0,0,17 cameran Dr
112,Keel,Lane,Kimberling City,65686,67,36.64302567,-93.41390595,112 Keel Ln
130,Keel,Lane,Kimberling City,65686,67,36.64283403,-93.41349581,130 Keel Ln
88,Port,Drive,Kimberling City,65686,67,36.62797895,-93.4258373,88 Port Dr
197,Port,Drive,Kimberling City,65686,67,36.62851369,-93.42594863,197 Port Dr
201,Port,Drive,Kimberling City,65686,67,36.62848346,-93.42595387,201 Port Dr
349,port,Drive,Kimberling City,65686,67,36.640926,-93.411845,349 port Dr #2
3197,Port,Drive,Kimberling City,65686,67,36.6410621,-93.4117919,3197 Port Dr
114,Spinnaker,Lane,Kimberling City,65686,67,36.641838,-93.41205257,114 Spinniker Ln
50,Starboard,Drive,Kimberling City,65686,67,36.642697,-93.412924,50 Starborad Dr
246,Starboard,Drive,Kimberling City,65686,67,36.64222575,-93.4128299,246 Starboard Dr
130,Keel,Lane,Kimberling City,65686,68,36.64283403,-93.41349581,130 Keel Ln
91,Port,Drive,Kimberling City,65686,68,36.62930499,-93.4257643,91 Port Dr #3
91,Port,Drive,Kimberling City,65686,68,36.62930499,-93.4257643,91 Port Dr #3
201,Port,Drive,Kimberling City,65686,68,36.62848346,-93.42595387,201 Port Dr
303,Port,Drive,Kimberling City,65686,68,36.64115649,-93.41193184,303 Port Dr unit 7
349,Port,Drive,Kimberling City,65686,68,36.640926,-93.411845,349 Port Dr Unit 2
114,Spinnaker,Lane,Kimberling City,65686,68,36.641838,-93.41205257,114 Spinniker Ln
88,Starboard,Drive,Kimberling City,65686,68,36.643708,-93.413014,88 Starboard
88,Starboard,Drive,Kimberling City,65686,68,36.643708,-93.413014,88 Starboard
93,Starboard,Drive,Kimberling City,65686,68,36.64414187,-93.41309893,93 Starboard
419,Canyon Forest,Circle,,65686,69,,,419 Canyon Forest 
353,Edgewater,Estates,Kimberling City,65686,69,36.62124618,-93.44997042,353 Edgewater St
353,Edgewater,Estates,Kimberling City,65686,69,36.62124618,-93.44997042,353 Edgewater St
38,Hillview,Lane,Branson West,65737,69,36.63956082,-93.39259396,38 Hill View
267,Silverbridge,Lane,Kimberling City,65686,69,36.61475106,-93.41337771,267 Silver Bridge Ln
219,South Port,Lane,Kimberling City,65686,69,36.61448689,-93.41563953,219 South Port Ln Unit 31
15,Whiterock,Lane,,65686,69,,,15 Waiterock Ln
1055,Alyeska Point,Road,Lampe ,65681,70,36.58043398,-93.49510659,1055 Ayleeska Point Rd
419,Canyon Forest,Circle,,65686,70,,,419 Cannyon Forrest
38,Hillview,Lane,Branson West,65737,70,36.63956082,-93.39259396,38 Hill View Ln
160,Hodges,Lane,,65737,70,,,160 Shadow Valley Dr
356,Linden,Drive,Reeds Spring,65737,70,36.59096513,-93.39851863,356 Linden Dr
356,Linden,Drive,Reeds Spring,65737,70,36.59096513,-93.39851863,356 Linden Dr
600,Point Sixteen,Lane,Galena,65656,70,36.597128,-93.503443,600 Point Ridge
127,Ridgeview,Road,Branson West,65737,70,36.64420336,-93.38677912,127 Ridgeview Rd
102,Ripley,Lane,Branson West,65737,70,36.66993415,-93.3951333,102 Ripley Ln
264,Starlight,Lane,Branson West,65737,70,36.6541706,-93.3778565,264 Starrville Ln
13,Elm,Drive,Kimberling City,65686,71,36.64099181,-93.42922664,13 Elm Dr
47,Hidden Shores,Drive,Reeds Spring,65737,71,36.58200251,-93.37100716,47 Hidden Shores Dr
3,Hillcrest,Drive,Kimberling City,65686,71,36.64668108,-93.4296571,3 Hillcrest Dr
48,Lexington,Road,,65681,71,,,48 Levington Rd
48,Lexington,Road,,65681,71,,,48 Levington Rd
275,Micahs,Crossing,Reeds Spring,65737,71,36.73181784,-93.38820332,275 Micahs Crossing 
300,Port,Drive,Kimberling City,65686,71,36.641171,-93.411939,300 Port Dr Unit 1
409,Three Pines,Circle,Reeds Spring,65737,71,36.73643359,-93.36727079,409 Thre Pines Cir
409,Three Pines,Circle,Reeds Spring,65737,71,36.73643359,-93.36727079,409 Thre Pines Cir
8,Valley View,Drive,Kimberling City,65686,71,36.64360891,-93.4252746,8 Valley View Dr
1,Beaver Dam,Road,Billings,65610,72,36.950858,-93.487473,
1,Beaver Dam,Road,Billings,65610,72,36.950858,-93.487473,
688,Cabin,Road,,65631,72,36.9714894,-93.45424178,
688,Cabin,Road,,65631,72,36.9714894,-93.45424178,
151,Fairwood,Road,Lampe ,65681,72,36.57233663,-93.48563945,
255,Pinnacle Shores,Drive,Lampe ,65681,72,36.5902997,-93.4329882,
4405,State Highway K,,,65631,72,,,
4405,State Highway K,,,65631,72,,,
200,Walnut,,,65675,72,36.935482,-93.497021,
200,Walnut,,,65675,72,36.935482,-93.497021,
456,Bywater,Drive,,65624,73,36.78710595,-93.51679359,
1,Hillcrest,Drive,Kimberling City,65686,73,36.646623,-93.429538,
128,Lakeshore,Drive,Kimberling City,65686,73,36.63500278,-93.43305069,
19988,MO 13,,Reeds Spring,65673,73,36.72012894,-93.3778719,
246,Navajo,Trail,Kimberling City,65686,73,36.622091,-93.435712,
246,Navajo,Trail,Kimberling City,65686,73,36.622091,-93.435712,
838,Peace in the Valley,Road,Blue Eye,65611,73,36.5237559,-93.3776603,
178,Ridge,Drive,,65616,73,36.6356547,-93.34597537,
199,Seldom Seen,Lane,Branson West,65737,73,36.6760192,-93.37060894,
139,Water Wheel,Lane,Kimberling City,65686,73,36.60985968,-93.45244353,
42,Bethany Beach,Drive,Branson West,65737,74,36.58275435,-93.38956773,
42,Bethany Beach,Drive,Branson West,65737,74,36.58275435,-93.38956773,
588,Canyon,Parkway,Branson,65616,74,36.64270563,-93.31847548,
588,Canyon,Parkway,Branson,65616,74,36.64270563,-93.31847548,
258,Eagle Ridge,Lane,Branson West,65737,74,36.61766702,-93.37284168,
440,Hoot Owl,Point,Kimberling City,65686,74,36.612312,-93.4545709,
10864,MO 76,,Branson West,65737,74,36.69675717,-93.36508367,
403,Shiloh,Lane,Kimberling City,65686,74,36.62753696,-93.44335573,
403,Shiloh,Lane,Kimberling City,65686,74,36.62753696,-93.44335573,
3,South Church,Drive,Kimberling City,65686,74,36.641518,-93.424945,
619,Black Forest,Lane,,65737,75,36.70113058,-93.32789045,
1775,Cedar Ridge,Way,Reeds Spring,65737,75,36.69249345,-93.33414628,
1251,Golf,Drive,Reeds Spring,65737,75,36.68189718,-93.31715584,
92,Lakeside,Lane,Reeds Spring,65737,75,36.7047843,-93.3200142,
92,Lakeside,Lane,Reeds Spring,65737,75,36.7047843,-93.3200142,
124,Silveroak,Way,Reeds Spring,65737,75,36.685484,-93.318281,
124,Silveroak,Way,Reeds Spring,65737,75,36.685484,-93.318281,
1334,Silveroak,Way,Reeds Spring,65737,75,36.684266,-93.321679,
630,Stoney Kirk,Circle,,65737,75,36.68729247,-93.31606071,
355,Black Forest,Lane,,65737,76,36.70425654,-93.32617657,
108,Cabana,court,,65737,76,36.684763,-93.31317109,
100,Commons,court,,65737,76,36.680875,-93.318929,
1103,Ledgestone,Lane,,65737,76,36.69126989,-93.32032914,
1103,Ledgestone,Lane,,65737,76,36.69126989,-93.32032914,
439,Limestone,Drive,Branson West,65737,76,36.70113245,-93.32155985,
439,Limestone,Drive,Branson West,65737,76,36.70113245,-93.32155985,
81,Mountain View,Court,Reeds Spring,65737,76,36.70834742,-93.32325185,
1042,Pokeberry,Lane,Lampe ,65681,76,36.59089558,-93.41360787,
913,Silverbluff,Circle,,65737,76,36.68820247,-93.31436277,
318,Cedar Glade,Drive,Branson West,65737,77,36.706468,-93.3162886,
318,Cedar Glade,Drive,Branson West,65737,77,36.706468,-93.3162886,
374,Cedar Glade,Drive,Branson West,65737,77,36.706468,-93.3162886,
374,Cedar Glade,Drive,Branson West,65737,77,36.706468,-93.3162886,
469,Cleartop,Lane,Lampe ,65681,77,36.54402337,-93.50048755,
829,Forest Lake,Drive,,65737,77,36.70020099,-93.32311286,
297,Limestone,Drive,Branson West,65737,77,36.69899769,-93.3201055,
220,Mountain View,Court,Reeds Spring,65737,77,,,
430,Silveroak,Way,Reeds Spring,65737,77,,,
54,Forest Lake,Drive,,65737,78,36.7044337,-93.3233455,
54,Forest Lake,Drive,,65737,78,36.7044337,-93.3233455,
82,Forest Lake,Drive,,65737,78,36.7044337,-93.3233455,
71,Fox Hollow,Road,,65737,78,36.70222106,-93.32195219,
71,Fox Hollow,Road,,65737,78,36.70222106,-93.32195219,
66,Garnite,Drive,Reeds Spring,65737,78,36.70624722,-93.32247817,
903,Silverbluff,Circle,,65737,78,36.68864374,-93.31446637,
903,Silverbluff,Circle,,65737,78,36.68864374,-93.31446637,
1309,Stoney Creek,Lane,,65737,78,36.68971192,-93.32135003,
1309,Stoney Creek,Lane,,65737,78,36.68971192,-93.32135003,
22,Ashwood,Lane,,65737,79,36.69235816,-93.3169954,
22,Ashwood,Lane,,65737,79,36.69235816,-93.3169954,
332,Cedar Glade,Drive,Branson West,65737,79,36.706468,-93.3162886,
332,Cedar Glade,Drive,Branson West,65737,79,36.706468,-93.3162886,
284,Marcasite,way,,65737,79,36.70922326,-93.32746828,
284,Marcasite,way,,65737,79,36.70922326,-93.32746828,
25,Mountain View,Court,Reeds Spring,65737,79,36.70835208,-93.32305702,
840,silvercliff,way,,65737,79,36.68939851,-93.31789781,
840,silvercliff,way,,65737,79,36.68939851,-93.31789781,
168,Starrville,Lane,Branson West,65737,79,36.6630531,-93.4202146,
616,Crossing,Drive,,65737,80,36.6861038,-93.31378231,
616,Crossing,Drive,,65737,80,36.6861038,-93.31378231,
66,Garnite,Drive,Reeds Spring,65737,80,36.70624722,-93.32247817,
1104,Ledgestone,Lane,,65737,80,36.690837,-93.319891,
1104,Ledgestone,Lane,,65737,80,36.690837,-93.319891,
7,Par,Lane,,65737,80,36.68246305,-93.31594649,
7,Par,Lane,,65737,80,36.68246305,-93.31594649,
931,Silverbluff,Circle,,65737,80,36.68811233,-93.31366187,
110,Silveroak,Way,Reeds Spring,65737,80,36.68433365,-93.32135236,
630,Stoney Kirk,Circle,,65737,80,36.68729247,-93.31606071,
269,Black Forest,Lane,,65737,81,36.70421341,-93.32461154,
269,Black Forest,Lane,,65737,81,36.70421341,-93.32461154,
703,Ledgestone,way,,65737,81,36.6912,-93.32448,
923,Silverbluff,Circle,,65737,81,36.68799757,-93.31399963,
923,Silverbluff,Circle,,65737,81,36.68799757,-93.31399963,
801,silvercliff,way,,65737,81,36.69047,-93.319046,
801,silvercliff,way,,65737,81,36.69047,-93.319046,
112,Silveroak,Way,Reeds Spring,65737,81,36.68433,-93.320937,
113,Silveroak,Way,Reeds Spring,65737,81,36.68416184,-93.32131468,
1705,Cedar Ridge,Way,Reeds Spring,65737,82,36.69212213,-93.32646929,
1119,Ledgestone,Lane,,65737,82,36.69265098,-93.32166614,
297,Limestone,Drive,Branson West,65737,82,36.69899769,-93.3201055,
220,Mountain View,Court,Reeds Spring,65737,82,,,
252,Mountain View,Court,Reeds Spring,65737,82,36.70760079,-93.32399818,
421,silverwood,Circle,,65737,82,36.687237,-93.31956,
421,silverwood,Circle,,65737,82,36.687237,-93.31956,
423,silverwood,Circle,,65737,82,36.68723549,-93.31953876,
423,silverwood,Circle,,65737,82,36.68723549,-93.31953876,
178,Weatherstone,Drive,,65737,82,36.7072819,-93.3204755,
355,Black Forest,Lane,,65737,83,36.70425654,-93.32617657,
277,Cedar Glade,Drive,Branson West,65737,83,36.71146011,-93.31544383,
277,Cedar Glade,Drive,Branson West,65737,83,36.71146011,-93.31544383,
1705,Cedar Ridge,Way,Reeds Spring,65737,83,36.69212213,-93.32646929,
918,Forest Lake,Drive,,65737,83,36.70176126,-93.32289024,
918,Forest Lake,Drive,,65737,83,36.70176126,-93.32289024,
121,Silveroak,Way,Reeds Spring,65737,83,36.68425709,-93.32047294,
264,South Port,Lane,,65686,83,36.61407614,-93.41529727,
264,South Port,Lane,,65686,83,36.61407614,-93.41529727,
533,Weatherstone,Drive,,65737,83,36.71063044,-93.32032137,
3050,buttermilk Spring,Road,,65656,84,,,
1105,Ledgestone,Lane,,65737,84,36.69145792,-93.32059794,
1105,Ledgestone,Lane,,65737,84,36.69145792,-93.32059794,
1364,Little Aunts Creek,Road,,65686,84,36.64450314,-93.46691785,
121,Silveroak,Way,Reeds Spring,65737,84,36.68425709,-93.32047294,
943,Treasure,Point,,65681,84,36.54638412,-93.48827636,
503,Weatherstone,Drive,,65673,84,36.71009755,-93.31986257,
503,Weatherstone,Drive,,65737,84,36.71009755,-93.31986257,
1,west 3rd,Street,,65656,84,36.8063784,-93.471004,
2374,buttermilk Spring,Road,,65656,85,36.65480941,-93.51825063,
2374,buttermilk Spring,Road,,65656,85,36.65480941,-93.51825063,
2998,buttermilk Spring,Road,,65656,85,36.65122625,-93.51262527,
20,clive cove,vista,,65681,85,36.60538498,-93.40920716,
35,Delaney,way,,65656,85,36.65107916,-93.51122931,
617,Rose Hill,Lane,,65656,85,36.66732865,-93.51820448,
617,Rose Hill,Lane,,65656,85,36.66732865,-93.51820448,
1,Unreadable,,,65656,85,0,0,
,Unreadable,,,65656,85,0,0,
,Unreadable,,,65656,85,0,0,
408,Austin,Place,Branson West,65737,86,36.66933195,-93.36267001,
409,Austin,Place,Branson West,65737,86,36.6694579,-93.36253737,
80,ClearCove,Drive,,65737,86,,,
1315,Coon ridge,Road,,65656,86,36.81255602,-93.36512151,
674,Heather,Row,,65737,86,36.64380454,-93.36951771,
43,Marina,Way,Kimberling City,65686,86,36.63642918,-93.41690375,
43,Marina,Way,Kimberling City,65686,86,36.63642918,-93.41690375,
68,Neals,Trail,,65737,86,36.73278217,-93.38695055,
24,Zachs,court,,65737,86,36.732042,-93.38928518,
186,Echo Valley,Circle,,65737,87,36.73057355,-93.38397269,
186,Echo Valley,Circle,,65737,87,36.73057355,-93.38397269,
80,Kings Cove,Lane,,65737,87,36.65441209,-93.46102134,
100,Kings Cove,Lane,,65737,87,,,
121,Kings Cove,Lane,,65737,87,,,
121,Kings Cove,Lane,,65737,87,36.65459226,-93.46158154,
768,Old Wilderness,Road,,65737,87,36.73470646,-93.37363586,
768,Old Wilderness,Road,,65737,87,36.73470646,-93.37363586,
25,Shady Oak,Lane,,65737,87,36.75689388,-93.37379904,
25,Shady Oak,Lane,,65737,87,36.75689388,-93.37379904,
4428,Joe Bald,Road,,65686,88,36.6204901,-93.45717683,
85,North Keystone,Street,,65747,88,36.60371352,-93.57886312,
124,north walnut,Street,,65611,88,36.579141,-93.337418,
766,Peace in the Valley,Road,Blue Eye,65611,88,36.5237559,-93.3776603,
200,Three Pines,Circle,Reeds Spring,65737,88,36.73692386,-93.36798079,
200,Three Pines,Circle,Reeds Spring,65737,88,36.73692386,-93.36798079,
,Unreadable,,,65737,88,0,0,
222,Bassen Ridge,Lane,,65656,89,36.83887587,-93.39601805,
564,Craig,Street,,65737,89,36.74208496,-93.37722302,
1071,Dogwood Tree,Road,,65737,89,36.77409302,-93.3629436,
701,Peach Orchard,Road,,65624,89,36.74032108,-93.49279965,
84,Quail Cove,Drive,,65686,89,36.64575823,-93.46987703,
316,South Maple,Street,,65656,89,36.80294893,-93.46569654,
16,Stone,Road,Kimberling City,65686,89,36.62606681,-93.45604013,
537,Tom Turkey,Circle,,65737,89,36.62398466,-93.39651301,
,Unreadable,,,65737,89,0,0,
99,Wildflower,Road,,65686,89,36.64561795,-93.46499524,
284,Briar Oaks,Lane,,65737,90,36.61104858,-93.37569644,
18593,Business Highway 13,,Reeds Spring,65737,90,36.6696308,-93.4094934,
37,Crown,Drive,Branson West,65737,90,36.6728489,-93.36640911,
1008,Dodge Hollow,Road,,65633,90,36.89918695,-93.58251541,
24,Maid Marian,Lane,,65737,90,36.61169017,-93.40214306,
193,Martin Hollow,Road,,65656,90,36.76865467,-93.47817045,
113,Melody Manor,Lane,Reeds Spring,65737,90,36.65908403,-93.45487131,
113,Melody Manor,Lane,Reeds Spring,65737,90,36.65908403,-93.45487131,
19,Summit,Drive,,65686,90,36.65729377,-93.42046008,
398,Taupe,Lane,,65737,90,36.775368,-93.33219,
311,Cedar Glade,Drive,Branson West,65737,91,36.7129438,-93.31604131,
311,Cedar Glade,Drive,Branson West,65737,91,36.7129438,-93.31604131,
123,James River,Road,Kimberling City,65686,91,36.64592556,-93.42956125,
123,James River,Road,Kimberling City,65686,91,36.64592556,-93.42956125,
183,Little Dove,Circle,,65737,91,36.58338747,-93.36045736,
478,Log Slide,Bluff,,65681,91,36.58163829,-93.40641318,
68,Northwoods,Drive,Kimberling City,65686,91,36.6583543,-93.42680515,
114,Oak,Drive,,65686,91,36.643332,-93.410652,
2853,Pioneer Point,Road,,65656,91,36.65977086,-93.47406625,
2853,Pioneer Point,Road,,65656,91,36.65977086,-93.47406625,
152,Goldwater,Lane,,65737,92,36.6747304,-93.45689465,
25,Hilltop,Drive,Kimberling City,65686,92,36.64628445,-93.42476837,
25,Hilltop,Drive,Kimberling City,65686,92,36.64628445,-93.42476837,
2,Kristina,lane,Kimberling City,65686,92,36.659474,-93.424577,
10770,Mo 76,,Branson West,65737,92,36.6963891,-93.3642549,
133,Point seven,Road,,65686,92,36.61228533,-93.41669251,
30,Quarterline,Drive,,65624,92,36.7315308,-93.49181039,
3963,State Highway 86,,,65681,92,,,
613,summer,Road,,65686,92,36.6391819,-93.4642158,
181,Forest Edge,Lane,,65686,93,36.62202275,-93.44615045,
182,Hodges,Lane,,65737,93,,,
210,Lakeshore,Drive,Kimberling City,65686,93,36.57610125,-93.33107611,
210,Lakeshore,Drive,Kimberling City,65686,93,36.57610125,-93.33107611,
478,Log Slide,Bluff,,65681,93,36.58163829,-93.40641318,
4,Midview,Drive,,65686,93,36.65299077,-93.42394952,
916,Silverbluff,Circle,,65737,93,,,
81,summer,Road,,65686,93,36.64024,-93.464981,
310,Sunset,Cove,,65616,93,36.63884592,-93.3304492,
10,Woodpecker,Road,,65737,93,36.77686874,-93.36905552,
1359,Hideaway,Road,,65656,94,36.6646735,-93.50460325,
114,Peggie,Lane,,65656,94,36.66709898,-93.473632,
114,Peggie,Lane,,65656,94,36.66709898,-93.473632,
2025,Pioneer Point,Road,,65656,94,36.67092901,-93.47447932,
2025,Pioneer Point,Road,,65656,94,36.67092901,-93.47447932,
2161,Pioneer Point,Road,,65656,94,36.66928297,-93.47393863,
2194,Pioneer Point,Road,,65656,94,36.66896615,-93.47378406,
2289,Pioneer Point,Road,,65656,94,36.66757698,-93.47394485,
2387,Pioneer Point,Road,,65656,94,36.66597199,-93.47406806,
2387,Pioneer Point,Road,,65656,94,36.66597199,-93.47406806,
106,Bear Den Cove,Lane,,65656,95,36.7010522,-93.49785893,
106,Bear Den Cove,Lane,,65656,95,36.7010522,-93.49785893,
487,Jackson Hollow,Road,Galena,65656,95,36.67615336,-93.48193201,
487,Jackson Hollow,Road,Galena,65656,95,36.67615336,-93.48193201,
60,Lake Point,Lane,,65656,95,36.6650368,-93.50078975,
2161,Pioneer Point,Road,,65656,95,36.66928297,-93.47393863,
6780,State Highway Y,,,65656,95,36.68951509,-93.49738891,
,Unreadable,,,65656,95,0,0,
50,Yocum Pond,Road,,65656,95,36.74981035,-93.39547632,
50,Yocum Pond,Road,,65656,95,36.74981035,-93.39547632,
67,chiguapin,Circle,,65616,96,36.6329833,-93.33908965,
28,Libby,Lane,,65656,96,36.6566656,-93.47362651,
2701,Pioneer Point,Road,,65656,96,36.662439,-93.473049,
22,Timberlake,Circle,,65656,96,36.66062635,-93.47408367,
87,Timberlake,Circle,,65656,96,36.66086229,-93.47504558,
235,Timberlake,Circle,,65656,96,36.65997125,-93.47717417,
235,Timberlake,Circle,,65656,96,36.65997125,-93.47717417,
281,Timberlake,Circle,,65656,96,36.65926889,-93.47708323,
374,Timberlake,Circle,,65656,96,36.65885637,-93.47634116,
374,Timberlake,Circle,,65656,96,36.65885637,-93.47634116,
28,Libby,Lane,,65656,97,36.6566656,-93.47362651,
140,Magic Mountain,Lane,,65656,97,36.66009173,-93.475868,
140,Magic Mountain,Lane,,65656,97,36.66009173,-93.475868,
2670,Pioneer Point,Road,,65656,97,36.66273999,-93.47312518,
2704,Pioneer Point,Road,,65656,97,36.66244152,-93.47283694,
2780,Pioneer Point,Road,,65656,97,36.66184739,-93.47284826,
2888,Pioneer Point,Road,,65656,97,36.66104415,-93.47312656,
3208,Pioneer Point,Road,,65656,97,36.65621192,-93.47577513,
3380,Pioneer Point,Road,,65656,97,36.6541792,-93.4779442,
22,Timberlake,Circle,,65656,97,36.66062635,-93.47408367,
234,Appletree,Lane,,65737,98,36.58900714,-93.38877337,
7,Belgian,Road,,65737,98,36.58539303,-93.36264765,
64,Irish Hills,Boulevard,Kimberling City,65686,98,36.65301586,-93.4436833,
76,Jade,Lane,,65686,98,36.6244621,-93.4388678,
120,Roxborough,Avenue,,65737,98,36.64265804,-93.36413426,
2700,Pioneer Point,Road,,65686,99,36.662471,-93.472848,
3306,Pioneer Point,Road,,65686,99,36.6544602,-93.4778251,
25,Beach,Boulevard,,65686,100,36.63710614,-93.41649007,
187,Craig,Street,,65737,100,36.736858,-93.37751,
231,Craig,Street,,65737,100,36.73755995,-93.37774214,
36,Diamond View,Lane,,65686,100,36.62438891,-93.43984242,
10,James River,Lane,Kimberling City,65686,100,36.65255745,-93.42226929,
1512,Little Aunts Creek,Road,,65686,100,36.64509669,-93.47002092,
258,Maple,Lane,,65616,100,36.637224,-93.428768,
72,Micahs,Crossing,Reeds Spring,65737,100,36.73301288,-93.38564122,
35,Oak Shadow,Drive,,65686,100,36.6451273,-93.40901236,
76,Sasparilla,Lane,,65686,100,36.60505021,-93.45425767,
161,Candlewood,Lane,,65681,101,36.58749269,-93.42421061,
35,Royale Estates,Road,,65686,101,36.62310904,-93.44609623,
308,Sturgis,Lane,,65737,101,36.68709471,-93.43983859,
95,Port,Drive,Kimberling City,65686,102,,,
95,Port,Drive,Kimberling City,65686,102,,,
153,Port,Drive,Kimberling City,65686,102,,,
249,Port,Drive,Kimberling City,65686,102,,,
249,Port,Drive,Kimberling City,65686,102,,,
285,Blue Springs,Lane,,65737,103,,,
285,Blue Springs,Lane,,65737,103,,,
121,Canyon Forest,Circle,,65686,103,,,
6815,State Highway Y,,,65656,103,,,
59,Lincoln,Lane,,65681,104,,,
197,Port,Drive,Kimberling City,65686,104,,,
197,Port,Drive,Kimberling City,65686,104,,,
199,Port,Drive,Kimberling City,65686,104,,,
249,Port,Drive,Kimberling City,65686,104,,,
249,Port,Drive,Kimberling City,65686,104,,,
268,Port,Drive,Kimberling City,65686,104,,,
268,Port,Drive,Kimberling City,65686,104,,,
1,Port Holiday,Drive,Kimberling City,65686,104,,,
145,Starboard,Drive,Kimberling City,65686,104,,,
32,Clipper,Lane,,65686,105,,,
32,Clipper,Lane,,65686,105,,,
67,Port,Drive,Kimberling City,65686,105,,,
67,Port,Drive,Kimberling City,65686,105,,,
153,Port,Drive,Kimberling City,65686,105,,,
153,Port,Drive,Kimberling City,65686,105,,,
348,Port,Drive,Kimberling City,65686,105,,,
112,Spinnaker,Lane,,65686,105,,,
130,Starboard,Drive,Kimberling City,65686,105,,,
25,Yacht,Lane,,65686,105,,,
49,James River,Road,Kimberling City,65686,106,,,
49,James River,Road,Kimberling City,65686,106,,,
610,Double O Nine,Road,,65686,107,,,
610,Double O Nine,Road,,65686,107,,,
1275,Hoot Owl,Point,Kimberling City,65686,107,,,
5725,Joe Bald,Road,,65686,107,,,
2579,Montague,Lane,,65686,107,,,
27,Notaroad,Lane,,65737,107,,,
10,Summit,Drive,,65686,107,,,
10,Summit,Drive,,65686,107,,,
126,Terrace Park,Road,,65737,107,,,
166,Terrace Park,Road,,65737,107,,,
166,Terrace Park,Road,,65737,107,,,
1167,Dogwood Village,Lane,,65686,108,,,
9,fairway,court,,65686,108,,,
181,Forest Edge,Lane,,65686,108,,,
5,Greenbrier,Drive,,65686,108,,,
1328,Meadowview,Road,,65656,108,,,
527,Notch,Lane,,65737,108,,,
1607,paradise Landing,Road,,65686,108,,,
261,The Lodges,Drive,Lampe ,65681,108,,,
9,Unreadable,,,65686,108,0,0,
194,Wildflower,Drive,,65686,108,,,
5,Edgemont,Drive,,65686,109,,,
7,Edgemont,Drive,,65686,109,,,
7,Edgemont,Drive,,65686,109,,,
2,Hickory,Lane,,65737,109,,,
2,Hickory,Lane,,65737,109,,,
850,Santana,Circle,Reeds Spring,65737,109,,,
23,Skyline,Drive,Kimberling City,65686,109,,,
23,Skyline,Drive,Kimberling City,65686,109,,,
2,Willow,Lane,,65686,109,,,
2,Willow,Lane,,65686,109,,,
252,Daybreak,Lane,,65737,110,,,
252,Daybreak,Lane,,65737,110,,,
5,Edgemont,Drive,,65686,110,,,
117,Faith Valley,Lane,,65681,110,,,
519,Mark Twain,Drive,,65737,110,,,
116,North Maple,Street,,65611,110,,,
2557,Wilson Creek,Road,,65656,110,,,
481,Cedar Bluff,Road,,65624,111,,,
222,Indian Cove,Drive,Lampe ,65681,111,,,
222,Indian Cove,Drive,Lampe ,65681,111,,,
614,Misty Springs,Road,,65656,111,,,
3787,MO 248,,,65737,111,,,
228,Pinnacle Shores,Drive,Lampe ,65681,111,,,
300,Port,Drive,Kimberling City,65686,111,,,
485,Bear Den Cove,Lane,,65656,112,,,
485,Bear Den Cove,Lane,,65656,112,,,
230,Hillsboro,Drive,,65656,112,,,
230,Hillsboro,Drive,,65656,112,,,
122,Nickel,Lane,,65656,112,,,
122,Nickel,Lane,,65656,112,,,
358,Virgin Bluff,Drive,,65656,112,,,
548,Hunt Club,Circle,,65656,113,,,
548,Hunt Club,Circle,,65656,113,,,
606,Hunt Club,Circle,,65656,113,,,
615,Hunt Club,Circle,,65656,113,,,
615,Hunt Club,Circle,,65656,113,,,
647,Hunt Club,Circle,,65656,113,,,
647,Hunt Club,Circle,,65656,113,,,
3515,Hunt Club,Circle,,65656,113,,,
260,Virgin Bluff,Drive,,65656,113,,,
260,Virgin Bluff,Drive,,65656,113,,,
93,Hillsboro,,,65656,114,,,
209,Hunt Club,Circle,,65656,114,,,
209,Hunt Club,Circle,,65656,114,,,
269,Hunt Club,Circle,,65656,114,,,
269,Hunt Club,Circle,,65656,114,,,
309,Hunt Club,Circle,,65656,114,,,
309,Hunt Club,Circle,,65656,114,,,
207,Virgin Bluff,,,65656,114,,,
207,Virgin Bluff,,,65656,114,,,
9,Arrowhead,Road,,65686,115,,,
6,Buttonwood,Drive,Kimberling City,65686,115,,,
258,Eagle Ridge,Lane,Branson West,65737,115,,,
8,Hillcrest,Drive,Kimberling City,65686,115,,,
8,Hillcrest,Drive,Kimberling City,65686,115,,,
12,James River,Lane,Kimberling City,65686,115,,,
168,Sherwood,Circle,,65686,115,,,
168,Sherwood,Circle,,65686,115,,,
190,Starrville,Lane,Branson West,65737,115,,,
190,Starrville,Lane,Branson West,65737,115,,,
7518,MO 13,,,65681,116,,,
117,Sunny,Lane,Branson West,65673,117,,,
37,Whiterock,Lane,,65686,117,,,
35,Catamaran,Drive,Kimberling City,65686,118,,,
34,Lakeshore,Drive,Kimberling City,65686,118,,,
140,Lakeshore,Drive,Kimberling City,65686,118,,,
526,Notch,Lane,,65737,118,,,
243,Old Mill,Road,,65671,118,,,
116,Sunny,Lane,Branson West,65737,118,,,
117,Sunny,Lane,Branson West,65737,118,,,
119,Sunny,Lane,Branson West,65737,118,,,
125,Sunny,Lane,Branson West,65737,118,,,
106,E 6th,Street,,65656,119,,,
35,Night Fall,Lane,,65737,119,,,
35,Night Fall,Lane,,65737,119,,,
20,Redbud,Lane,Kimberling City,65686,119,,,
22,Skyline,Drive,Kimberling City,65686,119,,,
22,Skyline,Drive,Kimberling City,65686,119,,,
33,Stones Throw,Road,,65737,119,,,
75,The Lodges,Drive,Lampe ,65681,119,,,
43,Wards,Place,,65737,119,,,
43,Andrew,Drive,,65737,120,,,
43,Andrew,Drive,,65737,120,,,
256,Branson West,,,65737,120,,,
1129,Broken Arrow,Road,Lampe ,65681,120,,,
672,Mark Twain,Drive,,65737,120,,,
402,Santana,Circle,Reeds Spring,65737,120,,,
902,Silverbluff,Circle,,65737,120,,,
902,Silverbluff,Circle,,65737,120,,,
540,State Highway DD,,,65737,120,,,
34,Woodland,Avenue,,65686,120,,,
200,Daisy,Lane,,65681,121,,,
200,Daisy,Lane,,65681,121,,,
238,Daisy,Lane,,65681,121,,,
278,Daisy,Lane,,65681,121,,,
286,Daisy,Lane,,65681,121,,,
286,Daisy,Lane,,65681,121,,,
872,Dogwood Village,Lane,,65681,121,,,
108,Judy Gail,Lane,,65681,121,,,
108,Judy Gail,Lane,,65681,121,,,
7,Oak Shadow,Drive,,65686,121,,,
62,Daisy,Lane,,65681,122,,,
62,Daisy,Lane,,65681,122,,,
150,Green Acres,Rd,,65681,122,,,
8758,MO 86,,,65747,122,,,
8758,MO 86,,,65747,122,,,
312,Rollin Acers,Road,Reeds Spring,65737,122,,,
431,Uniqueville,,,65681,122,,,
451,Uniqueville,,,65681,122,,,
465,Uniqueville,,,65681,122,,,
465,Uniqueville,,,65681,122,,,
1670,Blackberry,Lane,Crane,65633,123,,,
1057,Burr Oak,Drive,Crane,65633,123,,,
404,Kadee,Drive,,65633,123,,,
412,Kadee,Drive,,65633,123,,,
209,Maud,Avenue,,65633,123,,,
302,Maud,Avenue,,65633,123,,,
1654,MO AA,,,65656,123,,,
305,S Commerce,,,65633,123,,,
303,S Hemphill,Street,,65633,123,,,
501,S Hemphill,Street,,65633,123,,,
507,Carr,Street,,65656,124,,,
303,East,Avenue,,65633,124,,,
1597,Flat Creek,Road,,65624,124,,,
1597,Flat Creek,Road,,65624,124,,,
1336,MO FF,,,65656,124,,,
4452,Round House,Road,,65605,124,,,
511,S Commerce,,,65633,124,,,
1054,Sunday,Drive,,65633,124,,,
315,W 10th,Street,,65656,124,,,
3029,W27,Street,,64804,124,,,
46,Acoma,Drive,,65737,125,,,
46,Acoma,Drive,,65737,125,,,
60,Golfcrest,Drive,,65686,125,,,
275,Hidden Shores,Drive,Reeds Spring,65737,125,,,
14,James River,Road,Kimberling City,65686,125,,,
331,Ridgeview,Road,Branson West,65737,125,,,
331,Ridgeview,Road,Branson West,65737,125,,,
409,Sleepy Hollow,Drive,,65686,125,,,
409,Sleepy Hollow,Drive,,65686,125,,,
53,Whiterock,Bluff,,65737,125,,,
49,Fishin View,Trail,,65686,126,,,
111,James River,Road,Kimberling City,65686,126,,,
4,kimrock,Lane,,65686,126,,,
18593,MO 13,,,65737,126,,,
1937,Mule Barn,Drive,Cape Fair,65624,126,,,
67,Port,Drive,Kimberling City,65686,126,,,
67,port,Drive,Kimberling City,65686,126,,,
170,Reality Acers,Drive,,65737,126,,,
762,Showplace,Gateway,,65616,126,,,
24,Starboard,Drive,Kimberling City,65686,126,,,
47,Wisteria,Lane,,65737,126,,,
8,Bridgeview,Drive,Kimberling City,65686,127,,,
1,Hawthorn,,,65686,127,,,
12,Hawthorn,,,65686,127,,,
1369,Little Aunts Creek,Road,,65686,127,,,
1406,Little Aunts Creek,Road,,65686,127,,,
1512,Little Aunts Creek,Road,,65686,127,,,
12,Midview,Drive,,65686,127,,,
41,Overton,court,,65686,127,,,
1002,paradise Landing,Road,,65686,127,,,
344,Summer,Road,,65686,127,,,
613,Summer,Road,,65686,127,,,
9,Arrowhead,Road,,65686,128,,,
1813,Cottage Hill,Road,,65686,128,,,
10,Hilltop,Drive,Kimberling City,65686,128,,,
660,Plateau,Lane,Kimberling City,65686,128,,,
,PO Box,Lane,Kimberling City,65686,128,,,PO Box
300,Port,Drive,Kimberling City,65686,128,,,
228,Seaton Heights,,,65737,128,,,
87,Silverbridge,Lane,Kimberling City,65686,128,,,
181,Southport,Lane,,65686,128,,,
15,Starboard,Drive,Kimberling City,65686,128,,,
10,Ashwood,Lane,,65737,129,,,
624,Millwood,Drive,,65737,129,,,
46,Pink Sunset,Lane,,65686,129,,,
303,Port,Drive,Kimberling City,65686,129,,,
540,Silver Cliff,,,65737,129,,,
840,Silver Cliff,Way,,65737,129,,,
300,Slane Chapel,Road,,65737,129,,,
14,Walnut,Lane,,65686,129,,,
317,Ridgeview,Road,Branson West,65737,130,,,
327,Ridgeview,Road,Branson West,65737,130,,,
327,Ridgeview,Road,Branson West,65737,130,,,
349,Ridgeview,Road,Branson West,65737,130,,,
349,Ridgeview,Road,Branson West,65737,130,,,
414,Ridgeview,Road,Branson West,65737,130,,,
414,Ridgeview,Road,Branson West,65737,130,,,
336,Boston Farms,Road,,65737,131,,,
1252,Gobblers,Mountain,,65737,131,,,
217,Mayden,Lane,,65616,131,,,
263,Mayden,Lane,,65616,131,,,
64,N Granny,Lane,,65737,131,,,
264,Tablerock,Circle,Branson,65616,131,,,
264,Tablerock,Circle,Branson,65616,131,,,
9,Treehouse,Lane,,65616,131,,,
195,Mayden,Lane,,65616,132,,,
217,Mayden,Lane,,65616,132,,,
556,Tablerock,Circle,Branson,65616,132,,,
864,Tablerock,Circle,Branson,65616,132,,,
5,Treehouse,Lane,,65616,132,,,
24,Village,Trail,,65616,132,,,
24,Village,Trail,,65616,132,,,
1322,Dogwood,,,65681,133,,,
253,Forest,Lane,Kimberling City,65686,133,,,
30,Good,Lane,,65681,133,,,
4443,MO H,,,65681,133,,,
150,Rome,Circle,,65681,133,,,
150,Rome,Circle,,65681,133,,,
161,Craig,Street,,65737,134,,,
161,Craig,Street,,65737,134,,,
332,Craig,Street,,65737,134,,,
333,Craig,Street,,65737,134,,,
333,Craig,Street,,65737,134,,,
417,Craig,Street,,65737,134,,,
417,Craig,Street,,65737,134,,,
420,Craig,Street,,65737,134,,,
12,Gizmo,Lane,,65737,134,,,
27,Tower,Lane,,65737,134,,,
31,Blue Bird,Lane,,65737,135,,,
355,Craig,Street,,65737,135,,,
355,Craig,Street,,65737,135,,,
579,Craig,Street,,65737,135,,,
915,Craig,Street,,65737,135,,,
920,Craig,Street,,65737,135,,,
17996,MO 13,,,65737,135,,,
17996,MO 13,,,65737,135,,,
134,Rainwater,Lane,,65737,135,,,
1573,Tilden,Road,,65737,135,,,
31,Blue Bird,Lane,,65737,136,,,
1761,Cedar Ridge,Way,Reeds Spring,65737,137,,,
66,Northwoods,Drive,Kimberling City,65686,137,,,
69,Northwoods,Drive,Kimberling City,65686,137,,,
69,Northwoods,Drive,Kimberling City,65686,137,,,
71,Northwoods,Drive,Kimberling City,65686,137,,,
11,Holiday,Drive,,65686,138,,,
114,Lake Hills,Point,Lampe ,65681,138,,,
191,Lakefront,Circle,,65686,138,,,
66,Northwoods,Drive,Kimberling City,65686,138,,,
66,Northwoods,Drive,Kimberling City,65686,138,,,
2853,Pioneer Point,Road,,65656,138,,,
916,Silverbluff,Circle,,65737,138,,,
24,Starboard,Drive,Kimberling City,65686,138,,,
204,Starrville,Lane,Branson West,65737,138,,,
204,Starrville,Lane,Branson West,65737,138,,,
23,Kami,Lane,,65610,139,,,
1703,Cedar Ridge,Way,Reeds Spring,65737,140,,,
79,Freebird,Lane,,65686,140,,,
142,Lakeshore,Drive,Kimberling City,65686,140,,,
142,Lakeshore,Drive,Kimberling City,65686,140,,,
585,Lakeshore,Drive,Kimberling City,65686,140,,,
500,Navajo,Trail,Kimberling City,65686,140,,,
300,port,Drive,Kimberling City,65686,140,,,
2,Port Holiday,Drive,Kimberling City,65686,140,,,
46,Skyline,Drive,Kimberling City,65686,140,,,
10,Summit,Drive,,65686,140,,,
20,corner Rock,Rd,,65686,141,,,
14,Hillcrest,Drive,Kimberling City,65686,141,,,
134,Lakeshore,Drive,Kimberling City,65686,141,,,
1845,MO H,,,65681,141,,,
518,Navajo,Trail,Kimberling City,65686,141,,,
79,Northwoods,Drive,Kimberling City,65686,141,,,
200,Overton,Rd,,65686,141,,,
1607,paradise Landing,Road,,65686,141,,,
355,Silverbridge,Lane,Kimberling City,65686,141,,,
157,Watership Down,Lane,,65681,141,,,
17,Catamaran,Drive,Kimberling City,65686,142,,,
34,Hillcrest,Drive,Kimberling City,65686,142,,,
96,Homewood,Lane,,65686,142,,,
96,Homewood,Lane,,65686,142,,,
106,James View,Road,Kimberling City,65686,142,,,
112,Keel,Lane,Kimberling City,65686,142,,,
1222,Little Aunts Creek,Circle,,65686,142,,,
93,Starboard,Drive,Kimberling City,65686,142,,,
127,Trailsend,Street,,65737,142,,,
110,Wild Plum,,,65737,142,,,
206,Corewood,Lane,Reeds Spring,65737,143,,,
5,Elm,Drive,Kimberling City,65686,143,,,
31,Hansom,Lane,,65737,143,,,
28,Irish Hills,Boulevard,Kimberling City,65686,143,,,
28,Irish Hills,Boulevard,Kimberling City,65686,143,,,
385,Melody Manor,Lane,Reeds Spring,65737,143,,,
385,Melody Manor,Lane,Reeds Spring,65737,143,,,
922,MO HH,,,65656,143,,,
214,Pinewood,Drive,,65737,143,,,
697,Austin,Place,Branson West,65737,144,,,
26,Kimberling Mannor Estates,,,65686,144,,,
78,Lakeshore,Drive,Kimberling City,65686,144,,,
91,Port,Drive,Kimberling City,65686,144,,,
53,Victory,Lane,,65737,144,,,
256,Ayres Rock,Road,,65737,145,,,
5,Greenbrier,Drive,,65686,145,,,
630,Greenbrier,Drive,,65686,145,,,
103,Laurel,Lane,,65737,145,,,
634,MO RB,,,65681,145,,,
993,Pokeberry,Lane,Lampe ,65681,145,,,
1023,Pokeberry,Lane,Lampe ,65681,145,,,
1375,Pokeberry,Lane,Lampe ,65681,145,,,
68,Ruby,Circle,,65656,145,,,
284,Wildflower,Drive,,65686,145,,,
715,Edgewater,estate,Kimberling City,65686,146,,,
1797,Lake Bluff,,,65737,146,,,
1841,Lake Bluff,,,65737,146,,,
47,Liberty,Lane,,65656,146,,,
33,Loon,Lane,,65681,146,,,
887,Pokeberry,Lane,Lampe ,65681,146,,,
968,Pokeberry,Lane,Lampe ,65681,146,,,
968,Pokeberry,Lane,Lampe ,65681,146,,,
66,Windy,court,,65737,146,,,
19,Woodpecker,Way,,65737,146,,,
103,James River,Road,Kimberling City,65686,147,,,
510,S Commerce,,,65633,148,,,
510,S Commerce,,,65633,148,,,
24616,MO 413,,,65656,149,,,
24795,MO 413,,,65656,149,,,
24860,MO 413,,,65656,149,,,
24860,MO 413,,,65656,149,,,
192,Boomerang,Drive,,65656,150,,,
18,Harmony,Lane,,65737,150,,,
1,Kristina,lane,Kimberling City,65686,150,,,
24616,MO 413,,,65656,150,,,
24709,MO 413,,,65656,150,,,
3096,Night Shade,Boulevard,,65656,150,,,
61,Quail Cove,Drive,,65686,150,,,
199,Three Pines,Circle,Reeds Spring,65737,150,,,
199,Three Pines,Circle,Reeds Spring,65737,150,,,
18,Zachs,court,,65737,150,,,
26,Bass,Avenue,,65686,151,,,
14,Bridgeview,Drive,,65686,151,,,
14,Bridgeview,Drive,,65686,151,,,
85,Capulet,Lane,,65686,151,,,
85,Capulet,Lane,,65686,151,,,
15,Elm,Drive,,65686,151,,,
35,Hilltop,Lane,,65686,151,,,
9249,MO 13,,,65686,151,,,
308,Pokeberry,Lane,Lampe ,65681,151,,,
13,Raven Dale,Road,,65686,151,,,
315,Cron,Road,,65681,152,,,
106,Lakeshore,Drive,,65686,152,,,
106,Lakeshore,Drive,,65686,152,,,
2768,MO 13,,,65681,152,,,
5759,MO 13,,,65681,152,,,
7127,MO 13,,,65681,152,,,
21277,MO 13,,,65737,152,,,
289,Queens,Way,,65686,152,,,
289,Queens,Way,,65686,152,,,
28,Trailridge,Drive,,65686,152,,,
356,Austin,Place,Branson West,65737,153,,,
63,Hay Stack,Lane,,65681,153,,,
63,Hay Stack,Lane,,65681,153,,,
8,James River,Lane,Kimberling City,65686,153,,,
178,Leighs,Way,,65737,153,,,
7127,MO 13,,,65681,153,,,
56,North Granny,Lane,,65737,153,,,
303,Pinewood,Drive,,65737,153,,,
303,Pinewood,Drive,,65737,153,,,
157,Tyler,Lane,,65681,153,,,
30,Ridgeview,Road,,65737,154,,,
244,Three Pines,Circle,,65737,154,,,
229,White Bass,Drive,,65656,154,,,
18,Wildwood,Lane,,65686,154,,,
18,Wildwood,Lane,,65686,154,,,
1710,Cedar Ridge,Way,,65737,155,,,
1710,Cedar Ridge,Way,,65737,155,,,
1855,MO HH,,,65656,155,,,
1855,MO HH,,,65656,155,,,
36,Skyline,Drive,,65686,155,,,
36,Skyline,Drive,,65686,155,,,
17,Sunset Trail,Road,,65681,155,,,
15,Elm Point,Lane,,65686,156,,,
470,Hidden Shores,,,65737,156,,,
201,Hook,Road,,65737,156,,,
201,Hook,Road,,65737,156,,,
171,Old Hunt,Lane,,65737,156,,,
171,Old Hunt,Lane,,65737,156,,,
175,Old Hunt,Lane,,65737,156,,,
178,Old Hunt,Lane,,65737,156,,,
40,Rippling Waters,,,65686,156,,,
543,Walnut Tree,Drive,,65656,156,,,
218,Fritts,Way,,65737,157,,,
67,Locust,Lane,,65616,157,,,
47,Roxborough,,,65737,157,,,
266,Shiloh,Lane,,65686,157,,,
11,Bridgeview,,,65686,158,,,
155,JL Mills,Ridge,,65656,158,,,
163,Queensberry,,,65737,158,,,
761,Saint Cloud,Drive,,65624,158,,,
670,Showplace,Gateway,,65616,158,,,
165,Stinger,Lane,,65737,158,,,
237,Stinger,Lane,,65737,158,,,
325,Three Pines,,,65737,158,,,
276,Wildflower,,,65686,158,,,
22,Yocum Pond,Road,,65656,158,,,
479,Collier,Drive,,65686,159,,,
4,Copper,court,,65686,159,,,
102,Grand,Lane,,65656,159,,,
5,kimrock,Lane,,65686,159,,,
5,kimrock,Lane,,65686,159,,,
1339,Little Aunts Creek,Road,,65686,159,,,
39,Morgan,Trail,,65737,159,,,
39,Morgan,Trail,,65737,159,,,
1,Port Holiday,Drive,Kimberling City,65686,159,,,
469,Whispering Oaks,Drive,,65656,159,,,
123,Bounty,Drive,,65624,160,,,
1023,Bounty,Drive,,65624,160,,,
10,Cove,Street,,65686,160,,,
171,Lillian,Lane,,65686,160,,,
171,Lillian,Lane,,65686,160,,,
21976,Main,Street,,65737,160,,,
21976,Main,Street,,65737,160,,,
1162,Peble Point,Road,,65624,160,,,
68,State Line,Road,,65611,160,,,
1802,unreadable,Drive,,65633,160,,,
9,Bunker,Drive,,65737,161,,,
9,Bunker,Drive,,65737,161,,,
203,Chinook,Lane,,65686,161,,,
1,Chruch,Lane,,65686,161,,,
10,Golfcrest,Circle,,65686,161,,,
8551,MO 76,,,65624,161,,,
1805,Rock Church,Road,,65656,161,,,
29,The Poet,Place,,65737,161,,,
15,Trailridge,Drive,,65686,161,,,
168,Westgate,Lane,,65737,161,,,
44,Bethany Shores,Drive,,65737,162,,,
44,Bethany Shores,Drive,,65737,162,,,
718,Camp Yocum,,,65656,162,,,
718,Camp Yocum,,,65656,162,,,
66,Celebration,Drive,,65737,162,,,
197,Ferland,Lane,,65737,162,,,
4,September Falls,Drive,Reeds Spring,65737,162,,,
21,Skyline,Drive,,65686,162,,,
236,Wildflower,,,65686,162,,,
1907,Yocum Pond,Road,,65656,162,,,
137,Angora,Road,,65737,163,,,
137,Angora,Road,,65737,163,,,
307,Austin,Place,Branson West,65737,163,,,
480,Austin,Place,Branson West,65737,163,,,
503,Austin,Place,Branson West,65737,163,,,
503,Austin,Place,Branson West,65737,163,,,
503,Austin,Place,Branson West,65737,163,,,
520,Austin,Place,Branson West,65737,163,,,
560,Austin,Place,Branson West,65737,163,,,
560,Austin,Place,Branson West,65737,163,,,
475,Acorn,Drive,,65737,164,,,
500,Austin,Place,Branson West,65737,164,,,
500,Austin,Place,Branson West,65737,164,,,
493,Dogwood Village,Lane,,65681,164,,,
26891,MO 413,,,65656,164,,,
3049,MO H,,,65681,164,,,
102,Mountain View,Circle,,65737,164,,,
102,Mountain View,Circle,,65737,164,,,
22748,Old Highway 76,,,65737,164,,,
14,Woodland,,,67010,164,,,
1773,Cedar Ridge,Way,,65737,165,,,
1773,Cedar Ridge,Way,,65737,165,,,
18,Liberty,Lane,,65686,165,,,
19,Middlegate,,,65737,165,,,
114,Silveroak,Way,Reeds Spring,65737,165,,,
114,Silveroak,Way,Reeds Spring,65737,165,,,
1401,Stoney Creek,Circle,,65737,165,,,
27,By Pass Loop,,,65737,166,,,
43,Hillbilly,Drive,,65656,166,,,
291,Mark Twain,Drive,,65737,166,,,
350,Mark Twain,Drive,,65737,166,,,
9623,MO 76,,,65624,166,,,
9623,MO 76,,,65624,166,,,
10,Baywood,Circle,,65737,167,,,
27,By Pass Loop,,,65737,167,,,
47,By Pass Loop,,,65737,167,,,
142,By Pass Loop,,,65737,167,,,
628,Mark Twain,Drive,,65737,167,,,
683,Mark Twain,Drive,,65737,167,,,
723,Mark Twain,Drive,,65737,167,,,
734,Mark Twain,Drive,,65737,167,,,
734,Mark Twain,Drive,,65737,167,,,
6,Bluegrass,Drive,,65737,168,,,
6,Bluegrass,Drive,,65737,168,,,
155,Briar Oaks,Lane,,65737,168,,,
155,Briar Oaks,Lane,,65737,168,,,
180,Briar Oaks,Lane,,65737,168,,,
9,Little Memory,Lane,,65737,168,,,
9,Little Memory,Lane,,65737,168,,,
734,Mark Twain,Drive,,65737,168,,,
4772,MO DD,,,65737,168,,,
4772,MO DD,,,65737,168,,,
194,Chestnut,Road,,65624,169,,,
194,Chestnut,Road,,65624,169,,,
87,Fox Run,Lane,,65624,169,,,
75,Halfmoon,Road,,65624,169,,,
55,Northshore,Drive,,65624,169,,,
113,Rabbit Run,,,65624,169,,,
323,Roan,Road,,65624,169,,,
323,Roan,Road,,65624,169,,,
189,South,Street,,65624,169,,,
377,Sundance,Road,,65624,169,,,
280,Ball Diamond,Road,,65624,170,,,
2285,Eaglecrest,,,65624,170,,,
2285,Eaglecrest,,,65624,170,,,
87,Fox Run,Lane,,65624,170,,,
163,Halfmoon,Road,,65624,170,,,
507,Holiday Hills,Drive,,65624,170,,,
509,Holiday Hills,Drive,,65624,170,,,
95,Kingdom,Street,,65624,170,,,
1187,Redbud,Drive,,65624,170,,,
59,Spirit,Lane,,65624,170,,,
146,Ball Diamond,Road,,65624,171,,,
329,Flagstone,Road,,65624,171,,,
329,Flagstone,Road,,65624,171,,,
93,Howard,Circle,,65624,171,,,
93,Howard,Circle,,65624,171,,,
344,Palomino,Road,,65624,171,,,
344,Palomino,Road,,65624,171,,,
0,PO BOX,,,65624,171,0,0,
0,PO BOX,,,65624,171,0,0,
99,Redbud,Drive,,65624,171,,,
88,Cross,Road,,65624,172,,,
88,Cross,Road,,65624,172,,,
11641,Fir Rd,,,64836,172,0,0,
11641,Fir Rd,,,64836,172,0,0,
11232,MO 76,,,65624,172,,,
130,North Shar,Drive,,65624,172,,,
99,Redbud,Drive,,65624,172,,,
175,Redbud,Drive,,65624,172,,,
197,Star,Street,,65624,172,,,
60,Unreadable,,,65624,172,0,0,
612,Crossing,Drive,,65737,173,,,
622,Crossing,Drive,,65737,173,,,
1215,Ledgestone,Circle,,65737,173,,,
1004,Silvercrest,Place,,65737,173,,,
119,Silveroak,Way,Reeds Spring,65737,173,,,
119,Silveroak,Way,Reeds Spring,65737,173,,,
616,Stoney Creek,Circle,,65737,173,,,
1310,Stoney Creek,Circle,,65737,173,,,
1310,Stoney Creek,Circle,,65737,173,,,
1401,Stoney Creek,Circle,,65737,173,,,
104,Ashwood,Lane,,65737,174,,,
104,Ashwood,Lane,,65737,174,,,
7,Birdie,Lane,,65737,174,,,
800,Black Forest,Lane,,65737,174,,,
800,Black Forest,Lane,,65737,174,,,
1725,Cedar Ridge,Way,,65737,174,,,
2468,Coonridge,Road,,65656,174,,,
43,Granite,Drive,,65737,174,,,
1203,Ledgestone,Circle,,65737,174,,,
1203,Ledgestone,Circle,,65737,174,,,
11,Bluebird,Drive,,65686,175,,,
381,Cedar Glade,,,65737,175,,,
381,Cedar Glade,,,65737,175,,,
612,Crossing,Drive,,65737,175,,,
11,Fade,Lane,,65737,175,,,
43,Granite,Drive,,65737,175,,,
62,Mountain View,Circle,,65737,175,,,
241,Mountain View,Circle,,65737,175,,,
256,Mountain View,Circle,,65737,175,,,
292,Steven,Lane,,65737,175,,,
708,Ledges,Way,,65737,176,,,
708,Ledges,Way,,65737,176,,,
927,Ledges,Way,,65737,176,,,
927,Ledges,Way,,65737,176,,,
241,Mountain View,Circle,,65737,176,,,
11,Par,Lane,,65737,176,,,
1199,Redrock,Road,,65656,176,,,
1199,Redrock,Road,,65656,176,,,
1003,Silvercrest,Place,,65737,176,,,
258,Buck Run,Drive,,65737,177,,,
285,Buck Run,Drive,,65737,177,,,
2186,Capulet,Lane,,65686,177,,,
459,Forest,Lane,,65686,177,,,
459,Forest,Lane,,65686,177,,,
420,Grandview Hills,Circle,,65737,177,,,
7,Oleary,Drive,,65686,177,,,
1711,paradise Landing,Road,,65686,177,,,
1711,paradise Landing,Road,,65686,177,,,
303,S Maple,,,65686,177,,,
88,Chinkapen,Lane,,65686,178,,,
272,Moon,Drive,,65737,178,,,
105,Oak,,,65686,178,,,
7,Oleary,Drive,,65686,178,,,
1300,Peace in the Valley,Road,,65611,178,,,
1560,Peace in the Valley,Road,,65611,178,,,
133,Point seven,Road,,65686,178,,,
133,Point seven,Road,,65686,178,,,
20,Redbud,Lane,,65686,178,,,
10,Regatta,Lane,,65686,178,,,
93,Evening Side,Lane,,65611,179,,,
124,Hay Stack,Lane,,65681,179,,,
124,Hay Stack,Lane,,65868,179,,,
238,Mayflower,Drive,,65681,179,,,
81,MO EE,,,65611,179,,,
125,Ravenwood,Lane,,65681,179,,,
125,Ravenwood,Lane,,65681,179,,,
120,Richard Barns,Lane,,65656,179,,,
50,Unreadable,,,65686,179,0,0,
458,Boston Farms,Road,,65737,180,,,
15,Greenbrier,,,65686,180,,,
23035,Main,Street,,65737,180,,,
1316,Millwood,Drive,,65737,180,,,
1316,Millwood,Drive,,65737,180,,,
181,Overton,Drive,,65686,180,,,
1024,Pokeberry,Lane,Lampe ,65681,180,,,
26,Sinatra,Circle,,65737,180,,,
12,Walnut,Lane,,65686,180,,,
644,Heather,Row,,65737,181,,,
149,Keating,Lane,,65681,181,,,
5422,MO 13,,,65681,181,,,
22905,Old Highway 160,,,65737,181,,,
1811,State Line,Road,,65611,181,,,
1811,State Line,Road,,65611,181,,,
925,Stone Bridge,,,65737,181,,,
1551,Stoneridge,parkway,,65737,181,,,
60,Water Wheel,Lane,,65686,181,,,
307,Wazen View,Lane,,65681,181,,,
13,Bridgeview,,,65686,182,,,
18,Galatians,Lane,,65737,182,,,
6,Golden,Drive,,65686,182,,,
363,Log Slide,Bluff,,65681,182,,,
363,Log Slide,Bluff,,65681,182,,,
13,Melody Manor,,,65737,182,,,
181,Overlook,,,65686,182,,,
11,Raven Oak,Road,,65686,182,,,
226,Rockridge,Road,,65737,182,,,
81,Summer,Road,,65686,182,,,
8,Golden,Drive,,65686,183,,,
9218,MO 76,,,65624,183,,,
9218,MO 76,,,65624,183,,,
1,N Wilderness,,,65686,183,,,
0,PO BOX,,,65737,183,0,0,
2002,Pokeberry,Lane,Lampe ,65686,183,,,
38,Red Bird,Lane,,65681,183,,,
864,Tablerock,Lane,,65616,183,,,
18,Wards,Place,,65737,183,,,
101,Westwood,,,65686,183,,,
16,Bridgeview,Drive,,65686,184,,,
8,Evergreen,Drive,,65686,184,,,
8,Evergreen,Drive,,65686,184,,,
10,Hawthorn,,,65686,184,,,
10,Hawthorn,,,65686,184,,,
475,MO HH,,,65656,184,,,
63,Thruwoods,Road,,65624,184,,,
8,Valley View,Drive,,65686,184,,,
32,Woodland,Avenue,,65686,184,,,
32,Woodland,Avenue,,65686,184,,,
1220,Dogwood Village,Lane,,65681,185,,,
1220,Dogwood Village,Lane,,65681,185,,,
4,Golden,Circle,,65686,185,,,
4,Golden,Circle,,65686,185,,,
32,Hilbro,Drive,,65686,185,,,
32,Hilbro,Drive,,65686,185,,,
24,Maid Marrion,65686,,65686,185,,,
24,Maid Marrion,Lane,,65686,185,,,
193,Plateau,Lane,,65686,185,,,
953,Appaloosa,,,65633,186,,,
953,Appaloosa,,,65633,186,,,
44,Crowe,Drive,,65656,186,,,
1654,MO AA,,,65656,186,,,
,PO BOX,,,65633,186,,,
,PO BOX,,,65633,186,,,
59,Belle Haven,,,65656,187,,,
59,Belle Haven,,,65656,187,,,
18,Galatians,Lane,,65737,187,,,
18,Mark Twain,Drive,,65737,187,,,
,No Address,,,65737,187,,,
,No Address,,,65737,187,,,
,No Address,,,65737,187,,,
,PO BOX,,,65737,187,,,
12,Stones,Lane,,65754,187,,,
97,Tilden,Road,,65656,187,,,
35,Apache,Lane,,65686,188,,,
60,Bush,Avenue,,65686,188,,,
223,Fountain,Lane,,65686,188,,,
1528,Holiday Hills,,,65624,188,,,
129,Larue,Street,,65737,188,,,
4,Longview,Drive,,65686,188,,,
505,MO 248,,,65737,188,,,
131,Quail Cove,,,65686,188,,,
754,Stoneridge Center,Road,,65737,188,,,
,Unreadable,,,65656,188,,,
725,Backwood,,,65681,189,,,
165,Cricket Hill,Lane,,65681,189,,,
219,Lawton,,,65681,189,,,
2,Port Holiday,Drive,Kimberling City,65686,189,,,
2,Port Holiday,Drive,Kimberling City,65686,189,,,
2,Port Holiday,Drive,Kimberling City,65686,189,,,
857,Trace Hollow,Road,,65681,189,,,
857,Trace Hollow,Road,,65681,189,,,
33,Windy,court,,65737,189,,,
33,Windy,court,,65737,189,,,
120,Battle,Road,,65737,190,,,
102,Canyon Forest,Circle,,65686,190,,,
166,Cron,Road,,65681,190,,,
693,Falling Star,Road,,65681,190,,,
695,Falling Star,Road,,65681,190,,,
901,Jones Trading Post,Road,,65681,190,,,
422,Mill Creek Shores,Lane,,65681,190,,,
,PO BOX,,,65686,190,,,
17,Starrville,Place,,65737,190,,,
17,Starrville,Place,,65737,190,,,
47,Stones Throw,Street,,65737,190,,,
47,Stones Throw,Street,,65737,190,,,
77,Fairwood,Road,,65681,191,,,
70,Lincoln,Lane,,65681,191,,,
70,Lincoln,Lane,,65681,191,,,
2732,MO 248,,,65737,191,,,
123,Peaceful Valley,Lane,,65737,191,,,
,PO BOX,,,65681,191,,,
20,Romans,Road,,65737,191,,,
141,South Haven,Drive,,65681,191,,,
19,White Rock,Lane,,65686,191,,,
19,White Rock,Lane,,65686,191,,,
